{"type": "FeatureCollection", "features": [{"type": "Feature", "geometry": {"type": "Polygon", "coordinates": [[[105.56107387999992, 32.535126970000135], [105.56263139000004, 32.52051154999998], [105.53602852, 32.51208650000012], [105.53704425000001, 32.50231587000013], [105.5300916000001, 32.49199481000005], [105.51065676000002, 32.48414073999999], [105.50931103000005, 32.46901023000004], [105.49061387000006, 32.47446475999999], [105.48313099999996, 32.46496503000003], [105.47101266000004, 32.466256400000134], [105.43871552999997, 32.478554359999976], [105.43239515999994, 32.47194115000008], [105.43711061000005, 32.46297697], [105.42574884999999, 32.461581670000044], [105.42246863000003, 32.471327509999924], [105.42222381000005, 32.46684892000013], [105.41674046000003, 32.46755368999999], [105.42047470000006, 32.45926622000013], [105.41650979000013, 32.46202729999999], [105.40995266000004, 32.45882045000002], [105.40999703, 32.452823270000124], [105.39791751999991, 32.45029172000011], [105.40036616000003, 32.438283170000034], [105.39160280000004, 32.44485743000007], [105.38611069000001, 32.44204306000006], [105.38609988000002, 32.40789817000001], [105.37320706000014, 32.40163567000002], [105.37384105000001, 32.39646632000006], [105.38542289999998, 32.392659440000045], [105.3944864400001, 32.365265939999915], [105.41098268000002, 32.36026903000004], [105.43478104000002, 32.38481017000004], [105.4498874900001, 32.378393860000074], [105.47291022000002, 32.388809940000044], [105.49336376000002, 32.37410305999998], [105.49494578000002, 32.364339990000076], [105.46187657999997, 32.32175882000013], [105.38927589000008, 32.25565717000006], [105.4045739, 32.22384419000002], [105.40102166000008, 32.201951339999994], [105.38800750000013, 32.19526159999998], [105.37468932000002, 32.205643780000116], [105.36424538000011, 32.20193116000007], [105.28232629000013, 32.14106115999999], [105.27266672000007, 32.14939562000001], [105.27161649000004, 32.158241290000035], [105.26155728000015, 32.15679065000012], [105.24790544999996, 32.170414590000064], [105.26767684000004, 32.18941219000004], [105.26789389000004, 32.197995400000025], [105.26520335999999, 32.194737919999966], [105.25806047999998, 32.20217825000009], [105.23697850000008, 32.20615198000007], [105.24376597000014, 32.22026151000006], [105.25878978999992, 32.227462560000106], [105.2493816600001, 32.23855982000009], [105.2674436100001, 32.26831471999998], [105.26586401999998, 32.28004496999995], [105.25095257000004, 32.27392534000006], [105.2347310400001, 32.28942158000007], [105.25292309000002, 32.30483615000003], [105.24505163000009, 32.32231382000003], [105.22394321000013, 32.32100560999993], [105.20540352, 32.30909754000004], [105.1742508700001, 32.304852070000095], [105.11349124000009, 32.31306932000001], [105.08666306000003, 32.30840532000013], [105.07912733000006, 32.28571291000014], [105.03731513000014, 32.28861408000006], [105.02972807000015, 32.26732830000009], [104.99218360999998, 32.24987632000011], [104.99667170000009, 32.27349313000002], [104.97566527999999, 32.294236290000015], [104.96262894999995, 32.298705070000096], [104.95958234999995, 32.30647921000008], [104.96386225000003, 32.32512315999992], [104.97920803000005, 32.32730270000013], [104.97167415000001, 32.33692543000001], [104.93496793999998, 32.335825120000095], [104.90894168, 32.328638720000015], [104.88326870999998, 32.35720906999995], [104.85895771000003, 32.36056882999998], [104.83790866999999, 32.353579850000074], [104.8188379, 32.37372600000003], [104.80152923999998, 32.37652301000003], [104.77429663000004, 32.39639738000005], [104.77155344000005, 32.420664180000074], [104.75228973999992, 32.437371270000085], [104.75890522999998, 32.448781980000035], [104.74626531000007, 32.46713909999994], [104.75099690000008, 32.47604994000005], [104.74864469999994, 32.48615405999993], [104.75690104000012, 32.496148910000045], [104.74714319000009, 32.507634020000125], [104.75181426, 32.530879310000046], [104.70479574000012, 32.557067200000006], [104.65545636999997, 32.560743860000116], [104.64858165999993, 32.582023090000064], [104.63423496000007, 32.59789819000014], [104.61437590000003, 32.605952100000025], [104.61909808999997, 32.616196440000124], [104.6150445400001, 32.62851267000008], [104.62646721000004, 32.64550459000003], [104.63319408327425, 32.670868442729954], [104.64222047800013, 32.66357567700015], [104.66535922600008, 32.664886299000045], [104.69408560200014, 32.67580856200004], [104.7367941940002, 32.63771438800012], [104.75871588500007, 32.64711597200011], [104.79301387300018, 32.64579173600015], [104.81011244600012, 32.65302931100007], [104.8178025520001, 32.66524546400001], [104.8263245560002, 32.66494059200005], [104.84297969100004, 32.65625777900004], [104.85335480800006, 32.64013047200018], [104.86595042700014, 32.63202345900004], [104.87090839300004, 32.612735181000176], [104.87898332600014, 32.60361102000013], [104.92227582400017, 32.61017498500007], [104.96891616900018, 32.635241013000154], [105.00971799700017, 32.64169243200007], [105.02357395300015, 32.652304269000126], [105.0541784850002, 32.64782596000009], [105.07591115100013, 32.63932129000017], [105.09319452200009, 32.60819547000017], [105.10734997399999, 32.59618370200019], [105.14042107, 32.60336681000018], [105.17316095500007, 32.62021969500006], [105.1804695420002, 32.61901664700014], [105.18344993300013, 32.62800781000004], [105.19978727200004, 32.630044303999966], [105.19826799499998, 32.63445734700019], [105.211596391, 32.639059060000136], [105.216232628, 32.668576581000025], [105.23878956700008, 32.67092400500013], [105.25979360000002, 32.654574147000176], [105.29215052800015, 32.65799452400012], [105.30517848700009, 32.673266551000154], [105.32015224200012, 32.673937390000106], [105.32249621800008, 32.67944253900009], [105.34324216200008, 32.684781192000116], [105.3650679100001, 32.71492937100015], [105.37198797399998, 32.711639779999985], [105.3904539130001, 32.71630829700018], [105.42160631700017, 32.735951147000094], [105.44276554800001, 32.734277283000154], [105.45202924400019, 32.74031946900004], [105.45389722000004, 32.763482859999954], [105.4470387400001, 32.76992651000006], [105.44119858000005, 32.761860350000006], [105.43953063000009, 32.773624080000104], [105.4215206400001, 32.77653608000014], [105.42371793199999, 32.786281073000055], [105.40924898000009, 32.814282779999985], [105.38733946143628, 32.83755730962389], [105.39588756100011, 32.83860410100016], [105.38614648300006, 32.84961765900016], [105.39374093800001, 32.85379529400001], [105.38541590900019, 32.86066831300019], [105.39121019100014, 32.86678099100004], [105.37687796800009, 32.87905109600018], [105.40394870000017, 32.887666349000085], [105.40919009800001, 32.92080585900004], [105.41819378800017, 32.93054255400017], [105.45250559599998, 32.93460871100007], [105.47882834000012, 32.925814953999975], [105.495347326, 32.91396648600005], [105.48976916700008, 32.907549962000076], [105.48822416100012, 32.887610127000016], [105.49426495000017, 32.87209990800005], [105.5208880213599, 32.849894353383434], [105.52897661823522, 32.82164372949984], [105.52460999000004, 32.80764534000002], [105.52923691299998, 32.794955553000136], [105.55139521600006, 32.79663199100014], [105.55220185500013, 32.77357010500015], [105.5636752932815, 32.767389611007275], [105.56455248999998, 32.761079160000065], [105.55172462999997, 32.749097120000044], [105.55273105300006, 32.73439426900006], [105.56286802600005, 32.72660423000002], [105.58328952200009, 32.73146597200014], [105.59281858800017, 32.70165464700011], [105.62402957900804, 32.70614713462771], [105.62825172000004, 32.695232929999975], [105.63093019999997, 32.67606072000012], [105.59699046000003, 32.64372198000012], [105.58583020000015, 32.61781023000009], [105.55615597999997, 32.61726200000004], [105.54725194000008, 32.62734907000009], [105.53982227, 32.62674345000005], [105.53522924000009, 32.60279708000007], [105.53943134999997, 32.5965089500001], [105.54811128999995, 32.59642640000004], [105.54191156000002, 32.590623350000044], [105.52895061999999, 32.59476009000002], [105.52730706000011, 32.589574480000124], [105.50774314, 32.59134711000007], [105.50498882, 32.602765270000134], [105.48605361000006, 32.59735559000001], [105.4774473600001, 32.60166713000001], [105.46414957000013, 32.5915431200001], [105.46729427000008, 32.56867325000002], [105.48326037000004, 32.56025548000002], [105.50180733000002, 32.53282168999999], [105.53025104999995, 32.52327888999997], [105.56107387999992, 32.535126970000135]]]}, "properties": {"nameZh": "青川县", "nameEn": "Qingchuan", "severity": "extreme", "severityZh": "????", "source": "10 extremely affected counties", "damageLevelSource": "Extremely severely affected area", "population10k": 25.0, "intensity": 8.74, "deathsMissing": 4819.0, "deathMissingRate": 193.0, "collapsedHousing": 714084.0, "collapsedHousingPer10k": 28563.0, "affectedResidentialSites": 158.0, "affectedRoads": 97.0, "threatenedRiverBlockages": 23.0, "threatenedBridges": 0.0, "threatenedReservoirs": 1.0, "destroyedLandKm2": 0.0, "geologicalHazardRisk": 0.62, "resettlementRatePer10k": 9811.0, "compositeImpactIndex": 0.5146, "esvByYear": {"2000": 8133912064.0, "2001": 5311518720.0, "2002": 5736274944.0, "2003": 6459654656.0, "2004": 9032076288.0, "2005": 8842829824.0, "2006": 7851798528.0, "2007": 9631314944.0, "2008": 12434341888.0, "2009": 12880021504.0, "2010": 15785470976.0, "2011": 19153907712.0, "2012": 22123696128.0, "2013": 22745053184.0, "2014": 22016704512.0, "2015": 21738022912.0, "2016": 20016168960.0, "2017": 20121389056.0, "2018": 20680681472.0, "2019": 19867021312.0, "2020": 22273470464.0}}}, {"type": "Feature", "geometry": {"type": "MultiPolygon", "coordinates": [[[[104.10388175000014, 31.033995360000063], [104.08423863000002, 31.03974259000006], [104.08465503000002, 31.045407169999976], [104.07516556000002, 31.05259984999998], [104.07627682999993, 31.059739840000134], [104.05777687000011, 31.06648975000013], [104.05510213000014, 31.0803906700001], [104.04112490000006, 31.08502272000004], [104.0413508900001, 31.092926869999985], [104.0258029900001, 31.100250029999984], [104.02620241000011, 31.105744970000046], [104.01746150000002, 31.106213240000045], [104.02782566000013, 31.113679339999976], [104.01491807000008, 31.116941880000127], [104.02257379000008, 31.125662340000076], [104.02046421, 31.144939210000075], [104.00708783000005, 31.155540050000013], [104.00746099000003, 31.166010640000025], [104.01260013000001, 31.167805390000012], [104.00581140999998, 31.180774299999996], [103.99932754999998, 31.17978750000003], [103.98109857999998, 31.202967170000022], [103.96944972, 31.209593080000047], [103.94625741000004, 31.206011279999984], [103.94815009000001, 31.217526040000052], [103.93897496000005, 31.219028870000102], [103.94414797000013, 31.22109844000005], [103.9278566800001, 31.232417490000103], [103.93248498000008, 31.24604817000011], [103.92384864000013, 31.260703920000026], [103.93069729000013, 31.268444230000057], [103.88985133, 31.30751944000002], [103.89232607999998, 31.32843780000013], [103.92322574000008, 31.349963239999965], [103.92620201999995, 31.357527470000036], [103.89658834000005, 31.402470100000016], [103.8948095500001, 31.420157360000076], [103.88851698999991, 31.423530420000077], [103.87390896000005, 31.41736989000003], [103.86481191000001, 31.423892720000083], [103.85128031000005, 31.416186549999964], [103.82865041000008, 31.413619710000035], [103.81524725000008, 31.42494191000003], [103.81214881000005, 31.435418879999986], [103.79951802, 31.433296580000103], [103.79421455999994, 31.47570593000006], [103.82556199999999, 31.511520610000048], [103.83999747999997, 31.513213180000093], [103.85261830000007, 31.540421940000044], [103.89613857000012, 31.515257420000125], [103.91944358999996, 31.54036025000005], [103.93895523000003, 31.494402980000018], [103.94479653999997, 31.49708681000004], [103.96014146000005, 31.487055120000093], [103.96715513000004, 31.48833487000013], [103.96858698000005, 31.49806559000001], [103.97537533000002, 31.486778449999917], [103.98750146000003, 31.492310050000015], [103.99306548999999, 31.477791530000104], [104.00208400999992, 31.474685679999993], [104.00514814999997, 31.46241157999998], [103.99335888999991, 31.444600909999963], [103.99868044000004, 31.43661450999997], [104.02143188000014, 31.428686750000054], [104.02783851999993, 31.420777009999995], [104.01566760000014, 31.398365800000022], [104.02900998000007, 31.370616429999984], [104.02432176000013, 31.36763198999995], [104.02897450999995, 31.361766220000106], [104.02543271000002, 31.35218477000012], [104.04073784000002, 31.348207330000037], [104.04329887, 31.34213954000012], [104.0182970300001, 31.315628310000022], [104.02442496999998, 31.289989719999994], [104.04213598000007, 31.28074269000001], [104.0401892700001, 31.265311440000062], [104.08218014000005, 31.23757394000006], [104.10983125999996, 31.233458949999942], [104.16910625000008, 31.201267840000128], [104.23536001000008, 31.177855330000057], [104.27356775000004, 31.150663759999986], [104.27236194000011, 31.142187260000128], [104.25060120000012, 31.135017549999986], [104.23030847000012, 31.137432100000126], [104.23173262, 31.12301353999993], [104.22338280999998, 31.115681370000118], [104.2266459700001, 31.11136534000002], [104.21846068000002, 31.10171519000005], [104.20746308000008, 31.101049380000006], [104.20172598000005, 31.08907072000011], [104.19259506000003, 31.087157240000067], [104.19505132000006, 31.080713849999995], [104.18558150000007, 31.077921150000066], [104.18669275000002, 31.071466699999974], [104.17565983999998, 31.067109960000096], [104.1625177300001, 31.07228143000009], [104.159852, 31.066419730000007], [104.14041557000013, 31.059919800000102], [104.16867124999999, 31.031033130000083], [104.14545118000001, 31.027239370000075], [104.14095359000004, 31.034434010000098], [104.13628376000003, 31.03052514999996], [104.10652329999999, 31.035602519999998], [104.10388175000014, 31.033995360000063]]], [[[104.10458688, 31.0342045000001], [104.10587220000014, 31.033814249999978], [104.10572518000004, 31.033399420000137], [104.10384976999995, 31.033570590000068], [104.10458688, 31.0342045000001]]]]}, "properties": {"nameZh": "什邡市", "nameEn": "Shifang", "severity": "extreme", "severityZh": "????", "source": "10 extremely affected counties", "damageLevelSource": "Extremely severely affected area", "population10k": 43.0, "intensity": 8.68, "deathsMissing": 6132.0, "deathMissingRate": 143.0, "collapsedHousing": 1006921.0, "collapsedHousingPer10k": 23417.0, "affectedResidentialSites": 82.0, "affectedRoads": 233.0, "threatenedRiverBlockages": 380.0, "threatenedBridges": 2.0, "threatenedReservoirs": 3.0, "destroyedLandKm2": 7.0, "geologicalHazardRisk": 2.81, "resettlementRatePer10k": 8529.0, "compositeImpactIndex": 0.5953, "esvByYear": {"2000": 1302647296.0, "2001": 889005440.0, "2002": 955828096.0, "2003": 1064548672.0, "2004": 1489692672.0, "2005": 1463009920.0, "2006": 1303529216.0, "2007": 1586300544.0, "2008": 2013752576.0, "2009": 2025243904.0, "2010": 2425508096.0, "2011": 2889920768.0, "2012": 3324445696.0, "2013": 3373305600.0, "2014": 3238104320.0, "2015": 3211667456.0, "2016": 2961182208.0, "2017": 3025682944.0, "2018": 3126553600.0, "2019": 3001419520.0, "2020": 3361111040.0}}}, {"type": "Feature", "geometry": {"type": "Polygon", "coordinates": [[[103.91896616000008, 31.540431660000138], [103.91302125000004, 31.540800989999923], [103.90531429000009, 31.56684837000006], [103.92119860000003, 31.60566835000003], [103.91525302999997, 31.614439270000048], [103.91629453000002, 31.624927570000125], [103.92790740000004, 31.635772050000014], [103.92615395000007, 31.641899369999976], [103.96058657000015, 31.658892229999992], [103.98704353, 31.68457906000009], [104.01364095999998, 31.680703510000058], [104.03826865999997, 31.699740600000098], [104.08058220000004, 31.690299940000045], [104.09359821999993, 31.69545539000012], [104.11332264000004, 31.685874059999946], [104.11411250999998, 31.678053069999976], [104.09618459000006, 31.65233049000011], [104.09907503999995, 31.63519917000002], [104.1302154500001, 31.60735259000012], [104.12727223000013, 31.600136990000124], [104.14092857999992, 31.588623370000107], [104.14354079000009, 31.5669604900001], [104.15859376999998, 31.558196280000004], [104.14976541999994, 31.543816580000055], [104.1533849700001, 31.520275300000037], [104.16809878000004, 31.514474099999973], [104.18013016000003, 31.522379690000037], [104.20045056000004, 31.516690980000078], [104.20538907000008, 31.50230105999998], [104.21480612999994, 31.49948949000003], [104.23296433999997, 31.46618727000009], [104.26844674, 31.461523530000022], [104.28330683000007, 31.438498870000103], [104.30847822999999, 31.42987135000004], [104.3246151300001, 31.41386584999998], [104.32431953000014, 31.401420599999994], [104.33766212000012, 31.388564739999993], [104.33557005, 31.381797570000003], [104.32195908000006, 31.376908929999956], [104.33169788000009, 31.373744260000137], [104.34320008000003, 31.356409170000063], [104.33973677999995, 31.343338720000077], [104.32142861000005, 31.332627059999993], [104.31927585000005, 31.302151180000124], [104.29839212000002, 31.278237030000128], [104.27536362000012, 31.266979740000068], [104.27099948, 31.23908879999999], [104.24838825, 31.223088510000082], [104.26073130000003, 31.206832610000106], [104.25586174, 31.202540660000068], [104.2583964000001, 31.18632050000008], [104.27171943000008, 31.152100740000037], [104.23536001000008, 31.177855330000057], [104.16910625000008, 31.201267840000128], [104.10983125999996, 31.233458949999942], [104.08218014000005, 31.23757394000006], [104.0401892700001, 31.265311440000062], [104.04213598000007, 31.28074269000001], [104.02442496999998, 31.289989719999994], [104.0182970300001, 31.315628310000022], [104.0322561700001, 31.334856450000075], [104.04334181000002, 31.340815890000044], [104.04073784000002, 31.348207330000037], [104.02543271000002, 31.35218477000012], [104.02897450999995, 31.361766220000106], [104.02432176000013, 31.36763198999995], [104.02900998000007, 31.370616429999984], [104.01566760000014, 31.398365800000022], [104.02783851999993, 31.420777009999995], [103.99361995000004, 31.44380228], [104.00512124000005, 31.462790590000054], [103.98927995999992, 31.490887900000132], [103.97447246000007, 31.48706697], [103.96858698000005, 31.49806559000001], [103.96715513000004, 31.48833487000013], [103.96014146000005, 31.487055120000093], [103.94479653999997, 31.49708681000004], [103.93895523000003, 31.494402980000018], [103.91896616000008, 31.540431660000138]]]}, "properties": {"nameZh": "绵竹市", "nameEn": "Mianzhu", "severity": "extreme", "severityZh": "????", "source": "10 extremely affected counties", "damageLevelSource": "Extremely severely affected area", "population10k": 51.0, "intensity": 9.14, "deathsMissing": 11380.0, "deathMissingRate": 223.0, "collapsedHousing": 1397925.0, "collapsedHousingPer10k": 27410.0, "affectedResidentialSites": 24.0, "affectedRoads": 119.0, "threatenedRiverBlockages": 258.0, "threatenedBridges": 0.0, "threatenedReservoirs": 2.0, "destroyedLandKm2": 2.0, "geologicalHazardRisk": 1.56, "resettlementRatePer10k": 9029.0, "compositeImpactIndex": 0.6612, "esvByYear": {"2000": 2060192000.0, "2001": 1398010496.0, "2002": 1501407488.0, "2003": 1671623936.0, "2004": 2337710336.0, "2005": 2294170368.0, "2006": 2036083200.0, "2007": 2477338112.0, "2008": 3128612096.0, "2009": 3171036672.0, "2010": 3807937280.0, "2011": 4541853184.0, "2012": 5226953728.0, "2013": 5355463168.0, "2014": 5172489728.0, "2015": 5112498688.0, "2016": 4715494400.0, "2017": 4782534656.0, "2018": 4888231936.0, "2019": 4655750144.0, "2020": 5202496000.0}}}, {"type": "Feature", "geometry": {"type": "Polygon", "coordinates": [[[103.43060043000003, 30.880611299999998], [103.44906338999999, 30.894901179999977], [103.45237054000006, 30.927039840000134], [103.46280518999993, 30.943882760000008], [103.50489383000001, 30.973458119999975], [103.5157198500001, 30.975050990000113], [103.51528224000015, 31.031328510000037], [103.5024344900001, 31.042958029999966], [103.51798259000009, 31.06594374000008], [103.51834192999996, 31.082324700000072], [103.52651913999995, 31.092671559999985], [103.52358272999999, 31.103540730000077], [103.55515800000006, 31.15156702000013], [103.56278622000008, 31.17748830000005], [103.58120212000006, 31.193886750000104], [103.58063019000002, 31.211295150000012], [103.57472559999997, 31.218318150000073], [103.57937009, 31.249064320000116], [103.56709683000008, 31.264454510000007], [103.56782208000004, 31.27728615999996], [103.57771641999994, 31.29370879000004], [103.56831807000003, 31.31475240000003], [103.56755519999996, 31.34086934000004], [103.59334777999993, 31.34452461000012], [103.60337243999999, 31.35384139000007], [103.62503014999999, 31.34653427000012], [103.64159351, 31.355295330000104], [103.6553565700001, 31.352535339999974], [103.6672118400001, 31.357159550000006], [103.67689393000006, 31.368928360000098], [103.69473216000006, 31.35105768000011], [103.69265733999998, 31.338961190000077], [103.69838624000005, 31.32666488999996], [103.70876285000008, 31.320051820000117], [103.71160114000008, 31.311757090000015], [103.70643588999991, 31.304291819999946], [103.72027667000009, 31.28221947999998], [103.71781190000007, 31.268468630000143], [103.69345757000008, 31.245306089999985], [103.68243193, 31.21228365000013], [103.69486079, 31.19049590000003], [103.70380305000003, 31.18794496999999], [103.71846816000004, 31.170687620000137], [103.73727644000013, 31.166554659999917], [103.73242416000011, 31.149301820000062], [103.74523833000006, 31.117092190000108], [103.76139393000005, 31.10438518999996], [103.76481514, 31.087556260000042], [103.78290689999994, 31.08512940000014], [103.72467194000012, 31.07209777000014], [103.73787657000003, 31.061959140000056], [103.74481296000005, 31.03735321000005], [103.75140170000003, 31.031613479999976], [103.74798186000004, 31.017286440000078], [103.76418151999997, 31.002534770000068], [103.77262781000002, 30.984334509999996], [103.78055363999994, 30.981555210000067], [103.7803021100001, 30.96412698000006], [103.76415458000002, 30.954618330000073], [103.76497924000006, 30.925512620000063], [103.75789842000006, 30.90890761999998], [103.74575154000007, 30.9007225900001], [103.75852454999995, 30.88601993000003], [103.73328303000011, 30.880488160000084], [103.72601815999997, 30.86674391000014], [103.71359708000006, 30.86375227000002], [103.69176870999996, 30.88673897000001], [103.68556426999999, 30.885048970000014], [103.69869355000009, 30.837735920000057], [103.71343933000014, 30.817281180000123], [103.72171827, 30.782333800000117], [103.71942789000002, 30.772902010000053], [103.72778605000002, 30.75209619000003], [103.71435862999999, 30.751339719999976], [103.70203153, 30.76929438000002], [103.67923518999999, 30.776886990000094], [103.60929920000012, 30.764622359999976], [103.60190199000004, 30.775014130000045], [103.60829009999992, 30.791959650000024], [103.59768642000012, 30.798358590000134], [103.59129273000008, 30.813226269999973], [103.58006406000004, 30.813032370000087], [103.57423531000006, 30.821365010000136], [103.5591904900001, 30.826310960000114], [103.54704661000005, 30.822097900000017], [103.53956998000012, 30.838698380000096], [103.50209472000006, 30.845614710000007], [103.49518138000002, 30.858784710000066], [103.4764936900001, 30.857806490000144], [103.46831615000008, 30.870334060000005], [103.42985885999997, 30.87625677000011], [103.43060043000003, 30.880611299999998]]]}, "properties": {"nameZh": "都江堰市", "nameEn": "Dujiangyan", "severity": "extreme", "severityZh": "????", "source": "10 extremely affected counties", "damageLevelSource": "Extremely severely affected area", "population10k": 61.0, "intensity": 9.13, "deathsMissing": 3388.0, "deathMissingRate": 56.0, "collapsedHousing": 655265.0, "collapsedHousingPer10k": 10742.0, "affectedResidentialSites": 57.0, "affectedRoads": 63.0, "threatenedRiverBlockages": 9.0, "threatenedBridges": 0.0, "threatenedReservoirs": 5.0, "destroyedLandKm2": 1.0, "geologicalHazardRisk": 1.27, "resettlementRatePer10k": 7174.0, "compositeImpactIndex": 0.491, "esvByYear": {"2000": 2179124736.0, "2001": 1443076480.0, "2002": 1537176960.0, "2003": 1702533632.0, "2004": 2382011392.0, "2005": 2354603520.0, "2006": 2118275840.0, "2007": 2559688960.0, "2008": 3198319360.0, "2009": 3142645504.0, "2010": 3476276224.0, "2011": 4142926080.0, "2012": 4815484416.0, "2013": 5939872768.0, "2014": 5777822720.0, "2015": 5869597696.0, "2016": 5395272704.0, "2017": 5435751936.0, "2018": 5551896576.0, "2019": 5293946880.0, "2020": 5882076160.0}}}, {"type": "Feature", "geometry": {"type": "Polygon", "coordinates": [[[104.11924188000006, 31.03209851000014], [104.11484910000001, 31.019776740000054], [104.14090246000006, 31.01382569000009], [104.16687468999999, 30.99043695000006], [104.1631940100001, 30.985178119999944], [104.16747366999999, 30.97210766000012], [104.16109313999999, 30.961664780000092], [104.16433152000008, 30.954225070000064], [104.15037245000008, 30.943526890000044], [104.15024276000003, 30.93176445000006], [104.14006813999998, 30.92810976000004], [104.14750780000003, 30.9154051700001], [104.0758838800001, 30.918663030000005], [104.06480839999995, 30.927499529999977], [104.06036374999991, 30.952579609999987], [104.04504142000013, 30.96734776000011], [104.02684588000005, 30.960157440000103], [104.00736629, 30.94374403000006], [103.97479728999997, 30.939339010000083], [103.96237660000008, 30.930818390000127], [103.96042309000012, 30.91993957000011], [103.95200440000002, 30.922279040000035], [103.95078090000004, 30.918163100000015], [103.93869006000011, 30.924318169999992], [103.88895785, 30.92896602999997], [103.85892879, 30.940520349999986], [103.84250866000008, 30.938255770000012], [103.83823787000006, 30.929863900000043], [103.82829527000001, 30.93082289], [103.81946117000007, 30.943146179999985], [103.79711711999994, 30.945645660000025], [103.77737721000005, 30.959678360000055], [103.78033636000009, 30.98243445999998], [103.77262781000002, 30.984334509999996], [103.76418151999997, 31.002534770000068], [103.74798186000004, 31.017286440000078], [103.75140170000003, 31.031613479999976], [103.74481296000005, 31.03735321000005], [103.73787657000003, 31.061959140000056], [103.72467194000012, 31.07209777000014], [103.78273265000013, 31.086008710000044], [103.76118644000013, 31.090971369999977], [103.76139393000005, 31.10438518999996], [103.74523833000006, 31.117092190000108], [103.73275991000003, 31.148106240000118], [103.73727644000013, 31.166554659999917], [103.71846816000004, 31.170687620000137], [103.70380305000003, 31.18794496999999], [103.69592946999995, 31.18952359000002], [103.68168364000007, 31.21514372000013], [103.69345757000008, 31.245306089999985], [103.71893414000004, 31.27013075000002], [103.72027667000009, 31.28221947999998], [103.70643588999991, 31.304291819999946], [103.71160114000008, 31.311757090000015], [103.70876285000008, 31.320051820000117], [103.69838624000005, 31.32666488999996], [103.69265733999998, 31.338961190000077], [103.69473216000006, 31.35105768000011], [103.67689393000006, 31.368928360000098], [103.67973264000011, 31.37426940000006], [103.69860089000002, 31.393401719999986], [103.73762093000005, 31.401080659999934], [103.74800319000002, 31.42137850000006], [103.78346727999997, 31.436298840000006], [103.79876281000003, 31.432039640000028], [103.81099459000012, 31.436031660000083], [103.81524725000008, 31.42494191000003], [103.82865041000008, 31.413619710000035], [103.85128031000005, 31.416186549999964], [103.86481191000001, 31.423892720000083], [103.8754444700001, 31.417257450000136], [103.89245714999998, 31.42232823000012], [103.89264765000013, 31.411280989999966], [103.90587574, 31.38459131000002], [103.92620201999995, 31.357527470000036], [103.92322574000008, 31.349963239999965], [103.89232607999998, 31.32843780000013], [103.88985133, 31.30751944000002], [103.93069729000013, 31.268444230000057], [103.92384864000013, 31.260703920000026], [103.93248498000008, 31.24604817000011], [103.9278566800001, 31.232417490000103], [103.94414797000013, 31.22109844000005], [103.93897496000005, 31.219028870000102], [103.94815009000001, 31.217526040000052], [103.94625741000004, 31.206011279999984], [103.96944972, 31.209593080000047], [103.98109857999998, 31.202967170000022], [103.99932754999998, 31.17978750000003], [104.00612326999999, 31.180396540000004], [104.01260013000001, 31.167805390000012], [104.00746099000003, 31.166010640000025], [104.00708783000005, 31.155540050000013], [104.02046421, 31.144939210000075], [104.02257379000008, 31.125662340000076], [104.01491807000008, 31.116941880000127], [104.02782566000013, 31.113679339999976], [104.01746150000002, 31.106213240000045], [104.02620241000011, 31.105744970000046], [104.0258029900001, 31.100250029999984], [104.0413508900001, 31.092926869999985], [104.04112490000006, 31.08502272000004], [104.05510213000014, 31.0803906700001], [104.05777687000011, 31.06648975000013], [104.07627682999993, 31.059739840000134], [104.07516556000002, 31.05259984999998], [104.08465503000002, 31.045407169999976], [104.08423863000002, 31.03974259000006], [104.11924188000006, 31.03209851000014]], [[104.10401378000006, 31.033839500000113], [104.10432687000002, 31.033275930000002], [104.10587220000014, 31.033814249999978], [104.10491795000007, 31.03422661999997], [104.10401378000006, 31.033839500000113]]]}, "properties": {"nameZh": "彭州市", "nameEn": "Pengzhou", "severity": "extreme", "severityZh": "????", "source": "10 extremely affected counties", "damageLevelSource": "Extremely severely affected area", "population10k": 78.0, "intensity": 8.53, "deathsMissing": 1131.0, "deathMissingRate": 15.0, "collapsedHousing": 622066.0, "collapsedHousingPer10k": 7975.0, "affectedResidentialSites": 257.0, "affectedRoads": 45.0, "threatenedRiverBlockages": 183.0, "threatenedBridges": 0.0, "threatenedReservoirs": 1.0, "destroyedLandKm2": 26.0, "geologicalHazardRisk": 1.86, "resettlementRatePer10k": 5754.0, "compositeImpactIndex": 0.4333, "esvByYear": {"2000": 2136617856.0, "2001": 1465323520.0, "2002": 1571616384.0, "2003": 1750912640.0, "2004": 2449816576.0, "2005": 2392377088.0, "2006": 2117621760.0, "2007": 2536073216.0, "2008": 3238647808.0, "2009": 3305901568.0, "2010": 4048616704.0, "2011": 4840197632.0, "2012": 5567151104.0, "2013": 5453349376.0, "2014": 5239548928.0, "2015": 5182194688.0, "2016": 4864111616.0, "2017": 4942770688.0, "2018": 5086262272.0, "2019": 4851494400.0, "2020": 5437857280.0}}}, {"type": "Feature", "geometry": {"type": "Polygon", "coordinates": [[[104.16856035, 31.73440568000001], [104.18761387, 31.73201148999999], [104.21036416999999, 31.741508730000135], [104.21003445000002, 31.748670260000097], [104.23357311000007, 31.756652870000096], [104.26365768000005, 31.78260225000008], [104.29618018999997, 31.791291549999983], [104.30410568000008, 31.759659320000026], [104.31407845000012, 31.750268940000012], [104.32118734999995, 31.75065054999999], [104.33112697000007, 31.737789860000078], [104.34634449999993, 31.738608899999974], [104.33951251000008, 31.71419634], [104.37000835999999, 31.708438290000004], [104.37471425999996, 31.699608360000013], [104.37243077000005, 31.68989690000012], [104.38398569000009, 31.68671654000002], [104.37533011999994, 31.680958220000036], [104.3808427300001, 31.67388888000005], [104.36992138000011, 31.67064134000009], [104.37109340000006, 31.666187730000047], [104.36232505000004, 31.66659082999996], [104.35126632000004, 31.65322610999999], [104.35731585999997, 31.653999499999998], [104.36290675000004, 31.647198110000033], [104.3597818400001, 31.642239380000035], [104.36731699000006, 31.639562080000076], [104.3614657, 31.630249670000126], [104.37070326000014, 31.62277673], [104.36902668999994, 31.617962660000103], [104.37796064000003, 31.62318037], [104.3905835700001, 31.612333220000096], [104.39511525000006, 31.615259890000118], [104.39660812999995, 31.614588640000022], [104.39022744999994, 31.601971460000016], [104.3921978300001, 31.594941880000135], [104.40583752999993, 31.59265658000004], [104.39817949000013, 31.585073009999974], [104.40336296000004, 31.5603835], [104.41257435000011, 31.56186782000003], [104.4248674800001, 31.57341867000008], [104.43266366, 31.56719810000004], [104.4425083700001, 31.568257400000107], [104.45026100000013, 31.575901499999986], [104.44103303000009, 31.59179273000001], [104.45861288000015, 31.590389950000088], [104.49597588, 31.620942860000127], [104.50565440000003, 31.622355759999948], [104.51450850000003, 31.634457929999996], [104.50150486000007, 31.646306879999997], [104.5068168200001, 31.65899127], [104.50301578, 31.67234868999998], [104.50845765999998, 31.671762839999985], [104.51197374000009, 31.678609610000024], [104.55070297000003, 31.645353720000003], [104.53804820999994, 31.63055021999992], [104.54605964000007, 31.62888899999996], [104.54402850000002, 31.623522620000074], [104.55681304000001, 31.619038220000107], [104.57557818999993, 31.62550946999994], [104.57892878000007, 31.618792119999966], [104.60736234000007, 31.608876900000098], [104.61124251000012, 31.60054270000012], [104.60034941999999, 31.59312876000007], [104.60618231000012, 31.58262709000013], [104.59266831000002, 31.581115590000138], [104.59766744000012, 31.56929717000014], [104.58871072000011, 31.562455760000034], [104.6138376400001, 31.564633220000076], [104.62297722000011, 31.543025240000134], [104.63499894, 31.542379830000016], [104.63524123999997, 31.52243847000011], [104.62704829999996, 31.51306366], [104.60120061000003, 31.503265830000032], [104.57715842999994, 31.47385186999992], [104.55088568000002, 31.485128780000025], [104.54119925000009, 31.478564629999937], [104.52970684000007, 31.47882171000009], [104.50995936000004, 31.48894806000004], [104.50844887999995, 31.497898280000015], [104.49739018000014, 31.50806495000012], [104.48531514000007, 31.503868520000026], [104.47786708000001, 31.507643450000046], [104.47147853000007, 31.49182586000012], [104.48978606000014, 31.489325860000065], [104.48964699000004, 31.482716480000136], [104.50143492000012, 31.472870350000107], [104.50013291000005, 31.460463710000113], [104.52115731000004, 31.44487016000005], [104.51383998999995, 31.438735710000003], [104.51537629000006, 31.432350550000137], [104.50954261000004, 31.438842140000077], [104.5123815500001, 31.430556300000035], [104.50282355000007, 31.43457611000008], [104.50893540000004, 31.42984935999999], [104.50191247000004, 31.425687410000023], [104.49852772999992, 31.41285934000001], [104.47516781999997, 31.40935373000002], [104.48550695000012, 31.393154750000008], [104.45666797999996, 31.381074430000012], [104.44636253999994, 31.383723229999987], [104.43136056000003, 31.37855804999998], [104.42757583000002, 31.38405245000007], [104.42229677000006, 31.371806059999983], [104.38431508999997, 31.384914809999998], [104.37308099, 31.375830060000055], [104.36254165000003, 31.378086350000046], [104.35548403000013, 31.388412850000066], [104.34485847000008, 31.383911940000132], [104.32431953000014, 31.401420599999994], [104.3246151300001, 31.41386584999998], [104.30847822999999, 31.42987135000004], [104.28330683000007, 31.438498870000103], [104.26844674, 31.461523530000022], [104.23296433999997, 31.46618727000009], [104.21480612999994, 31.49948949000003], [104.20538907000008, 31.50230105999998], [104.20045056000004, 31.516690980000078], [104.18013016000003, 31.522379690000037], [104.16809878000004, 31.514474099999973], [104.15318560000014, 31.52055291000005], [104.1555896000001, 31.52857835000009], [104.14976541999994, 31.543816580000055], [104.15859376999998, 31.558196280000004], [104.14354079000009, 31.5669604900001], [104.14092857999992, 31.588623370000107], [104.12727223000013, 31.600136990000124], [104.1302154500001, 31.60735259000012], [104.09907503999995, 31.63519917000002], [104.09618459000006, 31.65233049000011], [104.11391305000001, 31.685001430000057], [104.09144505999996, 31.69558269999999], [104.10066467000001, 31.704802690000065], [104.10055230999996, 31.712304410000115], [104.11925187999998, 31.70941613000008], [104.14010417999992, 31.71750546000004], [104.1459821200001, 31.729811340000026], [104.16856035, 31.73440568000001]]]}, "properties": {"nameZh": "安州区", "nameEn": "Anzhou", "severity": "extreme", "severityZh": "????", "source": "10 extremely affected counties", "damageLevelSource": "Extremely severely affected area", "population10k": 50.0, "intensity": 8.89, "deathsMissing": 3295.0, "deathMissingRate": 66.0, "collapsedHousing": 774896.0, "collapsedHousingPer10k": 15498.0, "affectedResidentialSites": 98.0, "affectedRoads": 141.0, "threatenedRiverBlockages": 91.0, "threatenedBridges": 0.0, "threatenedReservoirs": 0.0, "destroyedLandKm2": 6.0, "geologicalHazardRisk": 0.95, "resettlementRatePer10k": 9720.0, "compositeImpactIndex": 0.4993, "esvByYear": {"2000": 1735952128.0, "2001": 1198644608.0, "2002": 1281189120.0, "2003": 1428686336.0, "2004": 2004819456.0, "2005": 1967550976.0, "2006": 1748537216.0, "2007": 2116231680.0, "2008": 2682609152.0, "2009": 2718489088.0, "2010": 3276372480.0, "2011": 3920329472.0, "2012": 4548146688.0, "2013": 4725568000.0, "2014": 4564960256.0, "2015": 4547782656.0, "2016": 4172838912.0, "2017": 4214725376.0, "2018": 4305683968.0, "2019": 4109813248.0, "2020": 4598393856.0}}}, {"type": "Feature", "geometry": {"type": "Polygon", "coordinates": [[[104.51197374000009, 31.678609610000024], [104.50845765999998, 31.671762839999985], [104.50301578, 31.67234868999998], [104.5068168200001, 31.65899127], [104.50150486000007, 31.646306879999997], [104.51450850000003, 31.634457929999996], [104.50565440000003, 31.622355759999948], [104.49597588, 31.620942860000127], [104.45861288000015, 31.590389950000088], [104.44103303000009, 31.59179273000001], [104.45026100000013, 31.575901499999986], [104.4425083700001, 31.568257400000107], [104.43266366, 31.56719810000004], [104.4248674800001, 31.57341867000008], [104.41257435000011, 31.56186782000003], [104.40336296000004, 31.5603835], [104.39817949000013, 31.585073009999974], [104.40583752999993, 31.59265658000004], [104.3921978300001, 31.594941880000135], [104.39022744999994, 31.601971460000016], [104.39660812999995, 31.614588640000022], [104.3905835700001, 31.612333220000096], [104.37796064000003, 31.62318037], [104.36902668999994, 31.617962660000103], [104.37070326000014, 31.62277673], [104.3614657, 31.630249670000126], [104.36731699000006, 31.639562080000076], [104.3597818400001, 31.642239380000035], [104.36290675000004, 31.647198110000033], [104.35731585999997, 31.653999499999998], [104.35126632000004, 31.65322610999999], [104.36232505000004, 31.66659082999996], [104.37109340000006, 31.666187730000047], [104.36992138000011, 31.67064134000009], [104.3808427300001, 31.67388888000005], [104.37533011999994, 31.680958220000036], [104.38398569000009, 31.68671654000002], [104.37243077000005, 31.68989690000012], [104.37471425999996, 31.699608360000013], [104.37000835999999, 31.708438290000004], [104.33951251000008, 31.71419634], [104.34634449999993, 31.738608899999974], [104.33112697000007, 31.737789860000078], [104.32118734999995, 31.75065054999999], [104.31407845000012, 31.750268940000012], [104.30410568000008, 31.759659320000026], [104.29618018999997, 31.791291549999983], [104.26365768000005, 31.78260225000008], [104.23357311000007, 31.756652870000096], [104.21003445000002, 31.748670260000097], [104.21156150000007, 31.74208829999992], [104.17954133, 31.731058820000044], [104.16856035, 31.73440568000001], [104.16783962000005, 31.763045239999997], [104.17349117000015, 31.768813749999993], [104.16693740000005, 31.773527140000056], [104.16623434000013, 31.78859427000009], [104.14992375000008, 31.796451930000103], [104.15600853000012, 31.800631460000034], [104.14928086999998, 31.812148639999975], [104.15661669999997, 31.820851290000064], [104.14966327000002, 31.817940380000096], [104.14469747000004, 31.824440229999993], [104.14310023000002, 31.816291080000042], [104.13033054000005, 31.817980680000062], [104.12429686999997, 31.831520000000125], [104.08060197000003, 31.84068616000002], [104.05853325999999, 31.83110699000008], [104.04811509000007, 31.848631780000062], [104.02543163000013, 31.8500538400001], [104.01676866000008, 31.854279130000123], [104.01386861999998, 31.86482583000003], [103.97321930999999, 31.858318620000034], [103.96458317000003, 31.880819850000023], [103.95403715000003, 31.883331230000124], [103.95546106000006, 31.90589607000004], [103.94430780000005, 31.909953900000062], [103.94324879999999, 31.92288796000014], [103.91796596000012, 31.94492200999997], [103.88060899000004, 31.929858360000082], [103.87474034000013, 31.92028390000013], [103.85982860000001, 31.919447440000056], [103.84054175000006, 31.92456799000007], [103.81570757999998, 31.94215704999999], [103.75164897000008, 31.95367700999998], [103.74644871000004, 31.95899110000005], [103.75252633999997, 31.96662629000008], [103.75664203000002, 32.00150384], [103.77377938000006, 32.01512488000009], [103.77325849999994, 32.02464471999997], [103.78263464999998, 32.03699368000014], [103.79200123999999, 32.039945890000126], [103.79352919999991, 32.04827913000008], [103.81413749000012, 32.05557355999997], [103.82259353000006, 32.072929320000014], [103.80981311000005, 32.10202037000005], [103.81193070000012, 32.112226390000046], [103.82465675000009, 32.116714929999944], [103.82452677999999, 32.13270002000007], [103.85552363999994, 32.13128664000004], [103.84992467999996, 32.16417709000001], [103.89634503000013, 32.158063120000065], [103.92040431000004, 32.14555624000013], [103.93817146999999, 32.14928045000005], [103.95888142000007, 32.14165272000008], [103.97239535, 32.14324061000002], [103.99397488000011, 32.12063347000003], [104.04287371999999, 32.13337573000001], [104.09795039, 32.12712930999993], [104.09982587000007, 32.13523922000002], [104.12480240000002, 32.14228157000008], [104.14994293000007, 32.12792058000002], [104.13912585999998, 32.15132953], [104.15397959000012, 32.161072209999986], [104.15972620000008, 32.18350666000009], [104.18296344999999, 32.20087876000002], [104.21926279000013, 32.21763871999997], [104.25503029999993, 32.21703585], [104.24524835000005, 32.19527863999997], [104.24070070000005, 32.16330438000011], [104.26355275000009, 32.145944820000125], [104.29568443, 32.14599837000014], [104.32119481000007, 32.11326213000012], [104.37433837999998, 32.09287677000003], [104.37782820000007, 32.07960344999998], [104.40144543999997, 32.06988729], [104.4107697, 32.05594772000006], [104.42803677999996, 32.058820660000094], [104.44603841000014, 32.08516818999993], [104.4615688500001, 32.08825481000008], [104.45841794, 32.10867862000009], [104.46690802000012, 32.112353760000076], [104.50008575000004, 32.086421610000116], [104.50728951999997, 32.088177500000086], [104.51943297999998, 32.078278380000086], [104.53312707000009, 32.076997500000004], [104.55291649000003, 32.06098195000004], [104.64172415000013, 32.04797869000009], [104.64077006000002, 32.02353435000009], [104.66983961000005, 32.006380480000075], [104.70418004999993, 32.01738768000007], [104.72157814000008, 31.993480850000026], [104.69505660000004, 31.97098982], [104.69776492000011, 31.96480789000009], [104.68898877999999, 31.936532930000055], [104.69917182, 31.925268160000087], [104.71093474999998, 31.925984449999987], [104.70712322999992, 31.915170980000028], [104.71708992999999, 31.9018145], [104.68766088000007, 31.87674153000006], [104.67158452000001, 31.872875739999927], [104.65940621999994, 31.884447500000135], [104.65767817999995, 31.89545822000008], [104.63578751000006, 31.905559790000098], [104.62681271000002, 31.895850740000014], [104.58051688, 31.87192601000004], [104.55624971999998, 31.868612369999994], [104.54803845000004, 31.849548040000002], [104.56435564000009, 31.845723020000037], [104.57273991000011, 31.83088502999999], [104.58950004000008, 31.824713400000064], [104.58234780999999, 31.78229888000004], [104.60215513999998, 31.766442030000064], [104.57785239999998, 31.75528771000012], [104.58861438999998, 31.74248974000011], [104.58729528000009, 31.737500669999974], [104.59757187000002, 31.73340442999995], [104.57730543000002, 31.711131890000104], [104.53743221000013, 31.690209750000065], [104.51305836999995, 31.68375214000008], [104.51197374000009, 31.678609610000024]]]}, "properties": {"nameZh": "北川羌族自治县", "nameEn": "Beichuan", "severity": "extreme", "severityZh": "????", "source": "10 extremely affected counties", "damageLevelSource": "Extremely severely affected area", "population10k": 16.0, "intensity": 9.16, "deathsMissing": 20047.0, "deathMissingRate": 1253.0, "collapsedHousing": 347856.0, "collapsedHousingPer10k": 21741.0, "affectedResidentialSites": 439.0, "affectedRoads": 271.0, "threatenedRiverBlockages": 27.0, "threatenedBridges": 0.0, "threatenedReservoirs": 1.0, "destroyedLandKm2": 13.0, "geologicalHazardRisk": 1.72, "resettlementRatePer10k": 8625.0, "compositeImpactIndex": 0.705, "esvByYear": {"2000": 8161547264.0, "2001": 5196818944.0, "2002": 5595383808.0, "2003": 6258165248.0, "2004": 8755820544.0, "2005": 8567145984.0, "2006": 7598604288.0, "2007": 9271938048.0, "2008": 11890600960.0, "2009": 12214119424.0, "2010": 14838717440.0, "2011": 17847072768.0, "2012": 20708141056.0, "2013": 21555722240.0, "2014": 20910716928.0, "2015": 20689739776.0, "2016": 18924378112.0, "2017": 18966620160.0, "2018": 19305613312.0, "2019": 18387007488.0, "2020": 20590075904.0}}}, {"type": "Feature", "geometry": {"type": "Polygon", "coordinates": [[[104.36869546292519, 32.81066868314724], [104.40099900600018, 32.78807681400008], [104.42004567500004, 32.781854509000084], [104.41939501900004, 32.76966647900008], [104.44481499500006, 32.76379497200003], [104.45491923900016, 32.750924096000006], [104.50622282999996, 32.757023530000026], [104.51191687, 32.746040930000106], [104.51969420656945, 32.74549044583131], [104.52864271200013, 32.72742962800015], [104.55270280400009, 32.736178521000056], [104.56925355600015, 32.73103099200006], [104.5810491690001, 32.72394600199999], [104.59087354400003, 32.69737543200017], [104.62905342900007, 32.67534816800014], [104.63319408327425, 32.670868442729954], [104.62617195000013, 32.644825210000135], [104.61522713000011, 32.62988202000008], [104.61909808999997, 32.616196440000124], [104.61437590000003, 32.605952100000025], [104.63423496000007, 32.59789819000014], [104.64858165999993, 32.582023090000064], [104.65545636999997, 32.560743860000116], [104.70479574000012, 32.557067200000006], [104.75181426, 32.530879310000046], [104.74714319000009, 32.507634020000125], [104.75690104000012, 32.496148910000045], [104.74864469999994, 32.48615405999993], [104.75099690000008, 32.47604994000005], [104.74626531000007, 32.46713909999994], [104.75890522999998, 32.448781980000035], [104.75228973999992, 32.437371270000085], [104.77072845000004, 32.422060349999924], [104.7719875300001, 32.39938607000005], [104.78324666999998, 32.3885446700001], [104.80298749999997, 32.37579348000003], [104.8188379, 32.37372600000003], [104.83790866999999, 32.353579850000074], [104.85895771000003, 32.36056882999998], [104.88326870999998, 32.35720906999995], [104.90894168, 32.328638720000015], [104.93754575000008, 32.33609188000014], [104.97167415000001, 32.33692543000001], [104.97716823000002, 32.33278276000004], [104.9773677, 32.32552798000006], [104.96386225000003, 32.32512315999992], [104.95930542999997, 32.30780297000001], [104.96262894999995, 32.298705070000096], [104.97566527999999, 32.294236290000015], [104.99667170000009, 32.27349313000002], [104.99218360999998, 32.24987632000011], [104.95753407000012, 32.24544394000003], [104.95197879000006, 32.233690460000105], [104.92919496000013, 32.22336341000005], [104.93176412000008, 32.21264628000006], [104.92407454999994, 32.18765332999999], [104.93656332999996, 32.17646096999994], [104.93460204000007, 32.165549200000044], [104.89933881000002, 32.13766724000004], [104.89376590000006, 32.11725546000008], [104.87889823000006, 32.103174550000006], [104.89233547000003, 32.07283025999999], [104.88937547000006, 32.060304320000114], [104.8743346500001, 32.048228859999995], [104.84736600999997, 32.046456240000055], [104.83962323000009, 32.02506552000011], [104.81893817000008, 32.00262253], [104.80840831, 32.00993507000004], [104.78735763999998, 31.99724071000003], [104.78477885000012, 32.01082145999999], [104.78961464000002, 32.019018980000055], [104.78491727, 32.02314764000005], [104.76903062000008, 32.02005223000009], [104.72512864000004, 31.993975820000117], [104.71221064000008, 32.002545190000035], [104.71101221000004, 32.01152189000004], [104.70298234999996, 32.01765051000001], [104.67169660000008, 32.005646739999975], [104.64077006000002, 32.02353435000009], [104.64172415000013, 32.04797869000009], [104.55291649000003, 32.06098195000004], [104.53312707000009, 32.076997500000004], [104.51943297999998, 32.078278380000086], [104.50728951999997, 32.088177500000086], [104.50008575000004, 32.086421610000116], [104.46690802000012, 32.112353760000076], [104.45841794, 32.10867862000009], [104.4615688500001, 32.08825481000008], [104.44603841000014, 32.08516818999993], [104.42803677999996, 32.058820660000094], [104.4107697, 32.05594772000006], [104.40144543999997, 32.06988729], [104.37782820000007, 32.07960344999998], [104.37433837999998, 32.09287677000003], [104.32119481000007, 32.11326213000012], [104.29568443, 32.14599837000014], [104.26355275000009, 32.145944820000125], [104.24070070000005, 32.16330438000011], [104.24524835000005, 32.19527863999997], [104.25503029999993, 32.21703585], [104.24504175000004, 32.25172437000009], [104.2214761400001, 32.26852395000009], [104.20694741000005, 32.28732778], [104.21041003000005, 32.29991021000012], [104.17694003000003, 32.309834340000066], [104.16813868999998, 32.29893119999997], [104.17111590000007, 32.28900512000007], [104.15732189000005, 32.26217507000007], [104.15940631000007, 32.25175678000011], [104.13553322999991, 32.23989134999994], [104.1284055000001, 32.225161860000014], [104.08514380999998, 32.23461197000012], [104.07328444999996, 32.23966336000012], [104.0662440100001, 32.25103587000012], [104.02889706999997, 32.25155203000003], [104.01894840999995, 32.26948733000006], [104.00514566999993, 32.276674790000015], [104.00274127999995, 32.28561581999992], [103.9803547300001, 32.30743467000008], [103.95788304000007, 32.30702424000009], [103.92977850000011, 32.31899746000005], [103.91807857999999, 32.31816719000011], [103.91169921000011, 32.33240405999999], [103.89585895000005, 32.34375526000002], [103.90230773000002, 32.34957044999999], [103.88754316, 32.36530547000001], [103.88952218999998, 32.38164701000011], [103.89949528000005, 32.398329440000055], [103.90299324000006, 32.424089350000145], [103.91290461, 32.43681841999995], [103.90227233000013, 32.47319951999992], [103.90053670000003, 32.49816139000012], [103.90540641000007, 32.511288079999986], [103.84433501000007, 32.58250581000004], [103.85089744999999, 32.61604903], [103.87537427999996, 32.62377096], [103.89170934000009, 32.642322879999995], [103.90735051000001, 32.644328090000045], [103.9222531900001, 32.63798330999998], [103.98879973999999, 32.65024323000006], [104.00869512000003, 32.643037700000036], [104.03557030000002, 32.65342700000002], [104.06536598000008, 32.63022797000008], [104.06628561999997, 32.60436980000003], [104.08274634000003, 32.56955497000013], [104.1267244600001, 32.532543470000064], [104.13243716000005, 32.521409310000024], [104.13063147000008, 32.50739885000007], [104.13487534000001, 32.505037120000054], [104.12908521000003, 32.49323357000003], [104.09251896, 32.46966623000014], [104.14187238000005, 32.475918860000036], [104.14537928999994, 32.49365754000013], [104.16245443000003, 32.51374698000001], [104.1604670700001, 32.525452740000105], [104.17224628000002, 32.533553909999966], [104.16597076, 32.58289075000005], [104.17566807000014, 32.611362780000036], [104.17975694000006, 32.67022198000001], [104.17285602999999, 32.686259269999994], [104.15990475000007, 32.694243510000035], [104.15330747999991, 32.71359665000011], [104.12749046000005, 32.73236792], [104.14413283000005, 32.76560697000002], [104.13950569999997, 32.77929631000012], [104.1290880200001, 32.78017218000008], [104.11868802000004, 32.80189873000006], [104.10376414000001, 32.80425178000007], [104.09928558999997, 32.84927429000004], [104.07461006000005, 32.85889406000001], [104.06191791000009, 32.84440340000009], [104.03407706999991, 32.836044079999965], [104.02991917999998, 32.82244774000014], [104.00079564000009, 32.81600069000001], [103.96942561999998, 32.84122935000005], [103.97511927999994, 32.853702990000045], [103.99160323999996, 32.86209614000012], [103.99179363000007, 32.880885890000116], [103.95578084000005, 32.89067957000009], [103.95846332999997, 32.90053388000007], [103.95103392000004, 32.901671330000056], [103.95459527000003, 32.91355865000003], [103.9504806600001, 32.918980340000076], [103.96324021999993, 32.92500107999996], [103.95712049000002, 32.942089980000105], [103.96820476000005, 32.948835250000116], [103.96102673000013, 32.95821764999994], [103.96758904000006, 32.96580651000011], [103.96638255000005, 32.97705911000014], [103.97609559000011, 32.98709248000006], [103.97143402000006, 33.00723684000002], [103.97810032000007, 33.01007701000003], [103.97712804000008, 33.026522440000065], [103.98413298000003, 33.03672784999998], [103.99310033, 33.036050300000056], [103.99864594000002, 33.043867060000025], [104.01102422999998, 33.04323504000013], [104.06508882000008, 33.00547196000002], [104.11077562000014, 33.001672460000066], [104.11670506000013, 32.98859383000013], [104.16700356000001, 32.95426320000013], [104.16799290999995, 32.94551690000014], [104.18828824000002, 32.921024400000135], [104.20375576000015, 32.920368680000024], [104.21484253999995, 32.910871230000055], [104.21694415000013, 32.899132110000096], [104.23349531999997, 32.892368680000004], [104.23882440000006, 32.88358742999998], [104.24539461000012, 32.87973111000014], [104.27455784670406, 32.893408527856934], [104.28687440400006, 32.87111087800008], [104.29175165700008, 32.83788312500019], [104.29769728700018, 32.83301773700015], [104.35716662400006, 32.825974633000044], [104.36869546292519, 32.81066868314724]]]}, "properties": {"nameZh": "平武县", "nameEn": "Pingwu", "severity": "extreme", "severityZh": "????", "source": "10 extremely affected counties", "damageLevelSource": "Extremely severely affected area", "population10k": 19.0, "intensity": 8.15, "deathsMissing": 6565.0, "deathMissingRate": 346.0, "collapsedHousing": 299557.0, "collapsedHousingPer10k": 15766.0, "affectedResidentialSites": 84.0, "affectedRoads": 153.0, "threatenedRiverBlockages": 10.0, "threatenedBridges": 1.0, "threatenedReservoirs": 0.0, "destroyedLandKm2": 1.0, "geologicalHazardRisk": 0.67, "resettlementRatePer10k": 9789.0, "compositeImpactIndex": 0.4424, "esvByYear": {"2000": 15641831424.0, "2001": 10148371456.0, "2002": 10949389312.0, "2003": 12288061440.0, "2004": 17221584896.0, "2005": 16882003968.0, "2006": 14974211072.0, "2007": 18350237696.0, "2008": 23526762496.0, "2009": 24169097216.0, "2010": 29354188800.0, "2011": 35169296384.0, "2012": 40531181568.0, "2013": 41688412160.0, "2014": 40308842496.0, "2015": 39700168704.0, "2016": 36244652032.0, "2017": 36279066624.0, "2018": 36940251136.0, "2019": 35250601984.0, "2020": 39492550656.0}}}, {"type": "Feature", "geometry": {"type": "Polygon", "coordinates": [[[103.67689393000006, 31.368928360000098], [103.6672118400001, 31.357159550000006], [103.6553565700001, 31.352535339999974], [103.64159351, 31.355295330000104], [103.62503014999999, 31.34653427000012], [103.60337243999999, 31.35384139000007], [103.59334777999993, 31.34452461000012], [103.56755519999996, 31.34086934000004], [103.56831807000003, 31.31475240000003], [103.57771641999994, 31.29370879000004], [103.56782208000004, 31.27728615999996], [103.56709683000008, 31.264454510000007], [103.57937009, 31.249064320000116], [103.57472559999997, 31.218318150000073], [103.58063019000002, 31.211295150000012], [103.58120212000006, 31.193886750000104], [103.56278622000008, 31.17748830000005], [103.55515800000006, 31.15156702000013], [103.52358272999999, 31.103540730000077], [103.52651913999995, 31.092671559999985], [103.51834192999996, 31.082324700000072], [103.51798259000009, 31.06594374000008], [103.5024344900001, 31.042958029999966], [103.51501542000011, 31.032588019999935], [103.51871620000003, 31.00522620999999], [103.51252296000007, 30.988489990000062], [103.51666549000004, 30.977095520000034], [103.46280518999993, 30.943882760000008], [103.45237054000006, 30.927039840000134], [103.45165022000015, 30.90066139999999], [103.44141940000009, 30.886874880000107], [103.42337914000007, 30.881469120000077], [103.40710069000005, 30.867257049999978], [103.38144335000004, 30.865367320000075], [103.35225234000012, 30.853222640000126], [103.33541352000003, 30.827088150000122], [103.32734227000014, 30.82781610000012], [103.30307341000014, 30.812987210000074], [103.29240017000006, 30.81515525000009], [103.28257348, 30.83204547000014], [103.26332571000012, 30.834774709999976], [103.25625382999993, 30.844904360000044], [103.22794971000002, 30.838906840000107], [103.17350819, 30.84935400000012], [103.13819875000002, 30.818790410000133], [103.12177156000013, 30.79514322], [103.07523666000003, 30.816630879999934], [103.00762609000003, 30.794083100000023], [102.99971414999999, 30.783467749999943], [102.96103084999993, 30.772312419999935], [102.8993091800001, 30.76735136000002], [102.87238415000007, 30.786243679999984], [102.8615686600001, 30.80948471000005], [102.87984861000001, 30.841851810000037], [102.88786062999998, 30.86856732000001], [102.88543830000015, 30.90728995000012], [102.9079633500001, 30.921585030000017], [102.90012557999995, 30.941029189999995], [102.90108031000011, 30.958226249999996], [102.91779738000002, 30.969988539999974], [102.91680782000003, 31.0018419700001], [102.9433676700001, 31.016397330000075], [102.95422616000002, 31.029734070000075], [102.97337344999994, 31.08619155000008], [102.95912947, 31.10515465000003], [102.91916859000014, 31.097881260000065], [102.90418761000001, 31.105605820000108], [102.9125201, 31.140935110000044], [102.89111582000004, 31.1917163600001], [102.90699102999997, 31.215161039999998], [102.91122846000007, 31.234479600000043], [102.94269011999995, 31.251113770000018], [102.95744308000013, 31.249661979999985], [102.96143534000004, 31.263733270000046], [102.97625441000014, 31.25944721999997], [103.00362064000007, 31.323028640000018], [103.01760306000006, 31.315293730000064], [103.02950968000005, 31.29096778000013], [103.04025258000001, 31.2877742], [103.06080593000013, 31.26892729000008], [103.08405395000005, 31.267628160000072], [103.11281467999993, 31.29155324000004], [103.14190346999999, 31.284282379999922], [103.14997597999997, 31.288579089999985], [103.15265201000005, 31.299764470000014], [103.16731115000005, 31.312739550000117], [103.16628232000005, 31.32055879000012], [103.19378636000005, 31.33190489000009], [103.19890809000015, 31.36282308], [103.20584385000006, 31.370859950000067], [103.22509846999998, 31.374404620000064], [103.24423114000012, 31.369770220000134], [103.29002324000004, 31.407932450000033], [103.33281679999993, 31.413953769999978], [103.36138946000011, 31.407638290000023], [103.37937176000008, 31.429296330000057], [103.40515526000002, 31.43180637000006], [103.40616842999998, 31.444660839999983], [103.40023739000009, 31.452419420000126], [103.42499040000001, 31.469713130000002], [103.43998555000007, 31.471705320000126], [103.45991486000008, 31.483533300000033], [103.4604468, 31.490779470000064], [103.48104271000005, 31.508034480000106], [103.50728372000003, 31.549738050000087], [103.49248024999997, 31.563938880000023], [103.49331220000005, 31.623612920000085], [103.50441239999998, 31.658010100000013], [103.48100140000003, 31.67345254999998], [103.47456064000005, 31.684907110000097], [103.47535919, 31.70025664000002], [103.48770365000001, 31.707821989999957], [103.51749476000003, 31.718131169999936], [103.53209985000001, 31.711617880000006], [103.55050761000007, 31.713531500000045], [103.59385437999993, 31.690685169999938], [103.60267287000005, 31.670726710000054], [103.64167518, 31.66835359999999], [103.64414060000007, 31.64691454000001], [103.61073120000009, 31.584068690000038], [103.61419328000005, 31.55725866000006], [103.6203384000001, 31.544193230000133], [103.65406889999997, 31.51368773000013], [103.66682404, 31.516367479999985], [103.67874246000008, 31.528615310000134], [103.69333008000001, 31.47171186999998], [103.71708051999997, 31.440059000000076], [103.74429650000013, 31.41837049000003], [103.73762093000005, 31.401080659999934], [103.69919561000006, 31.393749670000034], [103.67689393000006, 31.368928360000098]]]}, "properties": {"nameZh": "汶川县", "nameEn": "Wenchuan", "severity": "extreme", "severityZh": "????", "source": "10 extremely affected counties", "damageLevelSource": "Extremely severely affected area", "population10k": 11.0, "intensity": 8.89, "deathsMissing": 23871.0, "deathMissingRate": 2170.0, "collapsedHousing": 608198.0, "collapsedHousingPer10k": 55291.0, "affectedResidentialSites": 162.0, "affectedRoads": 307.0, "threatenedRiverBlockages": 161.0, "threatenedBridges": 2.0, "threatenedReservoirs": 0.0, "destroyedLandKm2": 4.0, "geologicalHazardRisk": 1.78, "resettlementRatePer10k": 10223.0, "compositeImpactIndex": 0.8675, "esvByYear": {"2000": 10233549824.0, "2001": 6959712768.0, "2002": 7494153728.0, "2003": 8376987136.0, "2004": 11833162752.0, "2005": 11690226688.0, "2006": 10374217728.0, "2007": 12657832960.0, "2008": 16060266496.0, "2009": 16399754240.0, "2010": 19803088896.0, "2011": 23628818432.0, "2012": 27210244096.0, "2013": 28241563648.0, "2014": 27301754880.0, "2015": 26934091776.0, "2016": 24541237248.0, "2017": 24627953664.0, "2018": 25030885376.0, "2019": 23781449728.0, "2020": 26568558592.0}}}, {"type": "Feature", "geometry": {"type": "Polygon", "coordinates": [[[104.09144505999996, 31.69558269999999], [104.08058220000004, 31.690299940000045], [104.0410115900001, 31.700311240000076], [104.01364095999998, 31.680703510000058], [103.98704353, 31.68457906000009], [103.96058657000015, 31.658892229999992], [103.92615395000007, 31.641899369999976], [103.92790740000004, 31.635772050000014], [103.91629453000002, 31.624927570000125], [103.91525302999997, 31.614439270000048], [103.92119860000003, 31.60566835000003], [103.90531429000009, 31.56684837000006], [103.91302125000004, 31.540800989999923], [103.91896616000008, 31.540431660000138], [103.90822121999992, 31.531450240000026], [103.90662354000006, 31.52198181], [103.89415145000004, 31.515591990000132], [103.85261830000007, 31.540421940000044], [103.83999747999997, 31.513213180000093], [103.82556199999999, 31.511520610000048], [103.79421455999994, 31.47570593000006], [103.79417060000003, 31.450327590000086], [103.80030840000006, 31.432394070000043], [103.78346727999997, 31.436298840000006], [103.74429650000013, 31.41837049000003], [103.71708051999997, 31.440059000000076], [103.69333008000001, 31.47171186999998], [103.67874246000008, 31.528615310000134], [103.66682404, 31.516367479999985], [103.65406889999997, 31.51368773000013], [103.6203384000001, 31.544193230000133], [103.61419328000005, 31.55725866000006], [103.61235417000012, 31.589105440000026], [103.6455470900001, 31.654325479999954], [103.63578153000014, 31.672023900000113], [103.60267287000005, 31.670726710000054], [103.59385437999993, 31.690685169999938], [103.54614403999994, 31.714600810000036], [103.53209985000001, 31.711617880000006], [103.51749476000003, 31.718131169999936], [103.47535919, 31.70025664000002], [103.46247676000013, 31.71537090999999], [103.44448058000006, 31.725211979999983], [103.43345636000004, 31.747426029999986], [103.36226764000008, 31.76614020000011], [103.31693680000001, 31.747753120000027], [103.28412637000008, 31.768091949999985], [103.26319962000002, 31.76713658999995], [103.23767398000007, 31.753101300000083], [103.20722827000003, 31.755508300000088], [103.1986841800001, 31.766914420000035], [103.18388447000001, 31.764328879999994], [103.16571173000006, 31.770720990000086], [103.14541957000012, 31.807635979999986], [103.08067626000002, 31.80697931000003], [103.05262304000001, 31.81398035000001], [103.02990138000013, 31.82905427000003], [103.03460111999999, 31.843413070000054], [103.02959645999994, 31.85567050999998], [103.00840227000015, 31.85269335999999], [102.99199988999993, 31.87271142000003], [102.96822813, 31.868332260000102], [102.95915725999998, 31.859979699999997], [102.94057413000007, 31.877736949999985], [102.97473317000004, 31.926169580000078], [103.00767424999992, 31.93083223000002], [103.05528830999992, 31.956476000000123], [103.08905759999999, 31.9583004000001], [103.09730489000009, 31.964842929999975], [103.11196934999998, 31.96033412999992], [103.13579321999998, 31.971524480000028], [103.18365417000012, 31.931210330000056], [103.21603642000002, 31.934708260000093], [103.24305827000006, 31.914085190000094], [103.26138374000004, 31.91743273999998], [103.29588863000004, 31.891161000000125], [103.31230667000005, 31.892245890000027], [103.33318049000002, 31.903056730000117], [103.35263320000001, 31.889277690000085], [103.37826399000011, 31.889265469999998], [103.38373451000012, 31.895328559999996], [103.40561513000006, 31.89955659000003], [103.41610475000004, 31.890348590000087], [103.44690107999998, 31.89965340000009], [103.47848937000003, 31.897159170000123], [103.48485963000007, 31.903816120000045], [103.48659698000012, 31.922466580000105], [103.4763627000001, 31.95705436999998], [103.49978284000008, 31.99233277000002], [103.49375157000003, 32.036888509999926], [103.4479635400001, 32.08902275000003], [103.43416026000006, 32.12292352999992], [103.41847135000012, 32.13800622000002], [103.38749224000014, 32.14737980000001], [103.38899476000012, 32.163436109999964], [103.38128881000006, 32.164606120000144], [103.37094193999997, 32.17895364999998], [103.40875898000013, 32.197869160000096], [103.44442327000013, 32.24000608000006], [103.47523298000004, 32.261644560000036], [103.48932229999997, 32.25983313000006], [103.52116137000002, 32.22829494000007], [103.52703749000005, 32.23092125000011], [103.53496213000005, 32.24962281000012], [103.58726644000001, 32.231250100000125], [103.63188810000003, 32.24047128999996], [103.65804980000001, 32.218660060000104], [103.66864024, 32.167952739999976], [103.67887474999998, 32.15734221000008], [103.69632263, 32.14936954000001], [103.76738773000005, 32.14521498999994], [103.81240861000003, 32.11259532999998], [103.80976007999993, 32.10036092000007], [103.82259353000006, 32.072929320000014], [103.81413749000012, 32.05557355999997], [103.79352919999991, 32.04827913000008], [103.79200123999999, 32.039945890000126], [103.78263464999998, 32.03699368000014], [103.77325849999994, 32.02464471999997], [103.77377938000006, 32.01512488000009], [103.75868228000007, 32.00489725000011], [103.74881926000006, 31.95566925999998], [103.76127658999997, 31.94865784000001], [103.81570757999998, 31.94215704999999], [103.84054175000006, 31.92456799000007], [103.85982860000001, 31.919447440000056], [103.87474034000013, 31.92028390000013], [103.88060899000004, 31.929858360000082], [103.91796596000012, 31.94492200999997], [103.94324879999999, 31.92288796000014], [103.94430780000005, 31.909953900000062], [103.95546106000006, 31.90589607000004], [103.95403715000003, 31.883331230000124], [103.96458317000003, 31.880819850000023], [103.97321930999999, 31.858318620000034], [104.01386861999998, 31.86482583000003], [104.01676866000008, 31.854279130000123], [104.02543163000013, 31.8500538400001], [104.04811509000007, 31.848631780000062], [104.05853325999999, 31.83110699000008], [104.08060197000003, 31.84068616000002], [104.12429686999997, 31.831520000000125], [104.13033054000005, 31.817980680000062], [104.14310023000002, 31.816291080000042], [104.14469747000004, 31.824440229999993], [104.14966327000002, 31.817940380000096], [104.15709461000012, 31.82033905999998], [104.14928086999998, 31.812148639999975], [104.15600853000012, 31.800631460000034], [104.14992375000008, 31.796451930000103], [104.1660259300001, 31.788936930000034], [104.16693740000005, 31.773527140000056], [104.17341297000007, 31.769728740000062], [104.16783962000005, 31.763045239999997], [104.16856035, 31.73440568000001], [104.1459821200001, 31.729811340000026], [104.14010417999992, 31.71750546000004], [104.11925187999998, 31.70941613000008], [104.10055230999996, 31.712304410000115], [104.10066467000001, 31.704802690000065], [104.09144505999996, 31.69558269999999]]]}, "properties": {"nameZh": "茂县", "nameEn": "Maoxian", "severity": "extreme", "severityZh": "????", "source": "10 extremely affected counties", "damageLevelSource": "Extremely severely affected area", "population10k": 11.0, "intensity": 7.91, "deathsMissing": 4088.0, "deathMissingRate": 372.0, "collapsedHousing": 300229.0, "collapsedHousingPer10k": 27294.0, "affectedResidentialSites": 138.0, "affectedRoads": 294.0, "threatenedRiverBlockages": 76.0, "threatenedBridges": 13.0, "threatenedReservoirs": 0.0, "destroyedLandKm2": 0.0, "geologicalHazardRisk": 2.2, "resettlementRatePer10k": 12824.0, "compositeImpactIndex": 0.5107, "esvByYear": {"2000": 9691435008.0, "2001": 6517308928.0, "2002": 7019155968.0, "2003": 7844748288.0, "2004": 11003437056.0, "2005": 10789278720.0, "2006": 9557724160.0, "2007": 11692269568.0, "2008": 14935794688.0, "2009": 15296678912.0, "2010": 18543337472.0, "2011": 22192418816.0, "2012": 25614721024.0, "2013": 26567725056.0, "2014": 25705338880.0, "2015": 25327204352.0, "2016": 23084052480.0, "2017": 23176157184.0, "2018": 23592382464.0, "2019": 22445801472.0, "2020": 25074141184.0}}}]}