{"type": "FeatureCollection", "features": [{"type": "Feature", "geometry": {"type": "Polygon", "coordinates": [[[103.89164938706276, 31.01], [103.89128576247825, 31.025977460426123], [103.89019544940746, 31.04193028476634], [103.88838012903415, 31.057833874921798], [103.88584260045073, 31.073663708709194], [103.88258677634235, 31.0893953776722], [103.87861767695382, 31.105004624717527], [103.8739414223487, 31.120467381517614], [103.86856522297265, 31.135759805622232], [103.86249736853543, 31.150858317221836], [103.85574721522877, 31.165739635505897], [103.84832517129982, 31.180380814560245], [103.84024268100235, 31.194759278747984], [103.83151220695058, 31.208852857519517], [103.8221472109027, 31.222639819597898], [103.8121621330038, 31.236098906486898], [103.8015723695203, 31.24920936525007], [103.7903942490999, 31.26195098051027], [103.77864500759412, 31.274304105620296], [103.76634276148172, 31.286249692956595], [103.75350647993456, 31.297769323289334], [103.74015595556835, 31.308845234183497], [103.72631177392404, 31.319460347387285], [103.71199528172625, 31.329598295165532], [103.69722855396827, 31.339243445537583], [103.68203435987401, 31.348380926380656], [103.66643612778945, 31.356996648361587], [103.65045790905788, 31.365077326661567], [103.63412434093448, 31.37261050146035], [103.61746060859738, 31.379584557148416], [103.60049240631406, 31.38598874023738], [103.58324589782256, 31.391813175941106], [103.56574767598892, 31.397048883401904], [103.5480247218029, 31.401687789538357], [103.53010436277528, 31.405722741493438], [103.51201423080079, 31.409147517663698], [103.49378221955172, 31.411956837292504], [103.47543644146795, 31.41414636861262], [103.45700518440954, 31.41571273552545], [103.43851686803896, 31.416653522806744], [103.42, 31.416967279830704], [103.40148313196104, 31.416653522806744], [103.38299481559046, 31.41571273552545], [103.36456355853205, 31.41414636861262], [103.34621778044828, 31.411956837292504], [103.32798576919922, 31.409147517663698], [103.30989563722473, 31.40572274149344], [103.2919752781971, 31.401687789538357], [103.27425232401109, 31.397048883401904], [103.25675410217744, 31.391813175941106], [103.23950759368594, 31.38598874023738], [103.22253939140262, 31.379584557148416], [103.20587565906553, 31.37261050146035], [103.18954209094213, 31.365077326661567], [103.17356387221055, 31.356996648361587], [103.157965640126, 31.348380926380656], [103.14277144603173, 31.339243445537583], [103.12800471827376, 31.329598295165532], [103.11368822607596, 31.319460347387285], [103.09984404443165, 31.308845234183497], [103.08649352006545, 31.297769323289334], [103.07365723851828, 31.286249692956595], [103.06135499240588, 31.274304105620296], [103.0496057509001, 31.26195098051027], [103.0384276304797, 31.24920936525007], [103.02783786699621, 31.236098906486898], [103.0178527890973, 31.222639819597898], [103.00848779304943, 31.208852857519517], [102.99975731899765, 31.194759278747984], [102.99167482870018, 31.180380814560245], [102.98425278477123, 31.165739635505897], [102.97750263146457, 31.150858317221836], [102.97143477702735, 31.135759805622232], [102.96605857765131, 31.120467381517614], [102.96138232304618, 31.105004624717527], [102.95741322365765, 31.0893953776722], [102.95415739954927, 31.073663708709194], [102.95161987096586, 31.057833874921798], [102.94980455059255, 31.04193028476634], [102.94871423752176, 31.025977460426123], [102.94835061293725, 31.01], [102.94871423752176, 30.99402253957388], [102.94980455059255, 30.978069715233666], [102.95161987096586, 30.962166125078205], [102.95415739954927, 30.94633629129081], [102.95741322365765, 30.930604622327802], [102.96138232304618, 30.914995375282476], [102.96605857765131, 30.89953261848239], [102.97143477702735, 30.88424019437777], [102.97750263146457, 30.869141682778167], [102.98425278477123, 30.854260364494106], [102.99167482870018, 30.83961918543976], [102.99975731899765, 30.82524072125202], [103.00848779304943, 30.811147142480486], [103.0178527890973, 30.797360180402105], [103.02783786699621, 30.783901093513105], [103.0384276304797, 30.770790634749932], [103.0496057509001, 30.758049019489732], [103.06135499240588, 30.745695894379708], [103.07365723851828, 30.733750307043408], [103.08649352006545, 30.72223067671067], [103.09984404443165, 30.711154765816506], [103.11368822607596, 30.70053965261272], [103.12800471827376, 30.69040170483447], [103.14277144603173, 30.68075655446242], [103.157965640126, 30.671619073619347], [103.17356387221055, 30.663003351638416], [103.18954209094213, 30.654922673338437], [103.20587565906553, 30.647389498539653], [103.22253939140262, 30.640415442851587], [103.23950759368594, 30.634011259762623], [103.25675410217744, 30.628186824058897], [103.27425232401109, 30.6229511165981], [103.2919752781971, 30.618312210461646], [103.30989563722473, 30.614277258506565], [103.32798576919922, 30.610852482336306], [103.34621778044828, 30.6080431627075], [103.36456355853205, 30.605853631387383], [103.38299481559046, 30.604287264474554], [103.40148313196104, 30.60334647719326], [103.42, 30.6030327201693], [103.43851686803896, 30.60334647719326], [103.45700518440954, 30.604287264474554], [103.47543644146795, 30.605853631387383], [103.49378221955172, 30.6080431627075], [103.51201423080079, 30.610852482336306], [103.53010436277528, 30.614277258506565], [103.5480247218029, 30.618312210461646], [103.56574767598892, 30.6229511165981], [103.58324589782256, 30.628186824058897], [103.60049240631406, 30.634011259762623], [103.61746060859738, 30.640415442851587], [103.63412434093448, 30.647389498539653], [103.65045790905788, 30.654922673338437], [103.66643612778945, 30.663003351638416], [103.68203435987401, 30.671619073619347], [103.69722855396827, 30.68075655446242], [103.71199528172625, 30.69040170483447], [103.72631177392404, 30.70053965261272], [103.74015595556835, 30.711154765816506], [103.75350647993456, 30.72223067671067], [103.76634276148172, 30.733750307043408], [103.77864500759412, 30.745695894379708], [103.7903942490999, 30.758049019489732], [103.8015723695203, 30.770790634749932], [103.8121621330038, 30.783901093513105], [103.8221472109027, 30.797360180402105], [103.83151220695058, 30.811147142480486], [103.84024268100235, 30.82524072125202], [103.84832517129982, 30.83961918543976], [103.85574721522877, 30.854260364494106], [103.86249736853543, 30.869141682778167], [103.86856522297265, 30.88424019437777], [103.8739414223487, 30.89953261848239], [103.87861767695382, 30.914995375282476], [103.88258677634235, 30.930604622327802], [103.88584260045073, 30.94633629129081], [103.88838012903415, 30.962166125078205], [103.89019544940746, 30.978069715233666], [103.89128576247825, 30.99402253957388], [103.89164938706276, 31.01]]]}, "properties": {"radiusKm": 45}}, {"type": "Feature", "geometry": {"type": "Polygon", "coordinates": [[[104.3632987741255, 31.01], [104.36257152495648, 31.04195492085225], [104.36039089881493, 31.073860569532677], [104.35676025806829, 31.105667749843594], [104.35168520090144, 31.13732741741839], [104.3451735526847, 31.1687907553444], [104.33723535390764, 31.200009249435055], [104.3278828446974, 31.230934763035226], [104.3171304459453, 31.261519611244466], [104.30499473707084, 31.29171663444367], [104.29149443045753, 31.321479271011796], [104.27665034259964, 31.350761629120488], [104.26048536200472, 31.37951855749597], [104.24302441390117, 31.407705715039032], [104.22429442180538, 31.43527963919579], [104.2043242660076, 31.462197812973795], [104.18314473904059, 31.488418730500143], [104.1607884981998, 31.51390196102054], [104.13729001518823, 31.538608211240586], [104.11268552296345, 31.56249938591319], [104.0870129598691, 31.585538646578666], [104.06031191113671, 31.607690468366993], [104.03262354784806, 31.628920694774568], [104.00399056345249, 31.649196590331066], [103.97445710793654, 31.668486891075165], [103.94406871974802, 31.68676185276131], [103.91287225557889, 31.703993296723176], [103.88091581811577, 31.72015465332313], [103.84824868186894, 31.7352210029207], [103.81492121719477, 31.749169114296826], [103.78098481262813, 31.76197748047476], [103.74649179564513, 31.773626351882214], [103.71149535197783, 31.784097766803807], [103.6760494436058, 31.793375579076713], [103.64020872555056, 31.80144548298688], [103.60402846160156, 31.80829503532739], [103.56756443910344, 31.813913674585006], [103.53087288293588, 31.81829273722524], [103.49401036881908, 31.821425471050894], [103.45703373607792, 31.823307045613483], [103.42, 31.823934559661406], [103.38296626392209, 31.823307045613483], [103.34598963118093, 31.821425471050894], [103.30912711706412, 31.81829273722524], [103.27243556089657, 31.813913674585006], [103.23597153839845, 31.80829503532739], [103.19979127444944, 31.80144548298688], [103.1639505563942, 31.793375579076713], [103.12850464802217, 31.784097766803807], [103.09350820435488, 31.773626351882214], [103.05901518737187, 31.76197748047476], [103.02507878280524, 31.74916911429683], [102.99175131813107, 31.7352210029207], [102.95908418188424, 31.72015465332313], [102.92712774442111, 31.703993296723176], [102.89593128025199, 31.68676185276131], [102.86554289206346, 31.668486891075165], [102.83600943654751, 31.649196590331066], [102.80737645215194, 31.628920694774568], [102.7796880888633, 31.607690468366993], [102.7529870401309, 31.585538646578666], [102.72731447703656, 31.56249938591319], [102.70270998481178, 31.538608211240586], [102.6792115018002, 31.51390196102054], [102.65685526095942, 31.488418730500143], [102.6356757339924, 31.462197812973795], [102.61570557819462, 31.43527963919579], [102.59697558609884, 31.407705715039032], [102.57951463799529, 31.37951855749597], [102.56334965740037, 31.350761629120488], [102.54850556954247, 31.321479271011796], [102.53500526292916, 31.29171663444367], [102.52286955405471, 31.261519611244466], [102.5121171553026, 31.230934763035226], [102.50276464609236, 31.200009249435055], [102.4948264473153, 31.1687907553444], [102.48831479909856, 31.13732741741839], [102.48323974193171, 31.105667749843594], [102.47960910118508, 31.073860569532677], [102.47742847504352, 31.04195492085225], [102.4767012258745, 31.01], [102.47742847504352, 30.978045079147755], [102.47960910118508, 30.946139430467326], [102.48323974193171, 30.91433225015641], [102.48831479909856, 30.882672582581613], [102.4948264473153, 30.851209244655603], [102.50276464609236, 30.819990750564948], [102.5121171553026, 30.78906523696478], [102.52286955405471, 30.75848038875554], [102.53500526292916, 30.728283365556333], [102.54850556954247, 30.698520728988207], [102.56334965740037, 30.669238370879516], [102.57951463799529, 30.640481442504033], [102.59697558609884, 30.61229428496097], [102.61570557819462, 30.58472036080421], [102.6356757339924, 30.55780218702621], [102.65685526095942, 30.53158126949986], [102.6792115018002, 30.506098038979463], [102.70270998481178, 30.481391788759417], [102.72731447703656, 30.457500614086815], [102.7529870401309, 30.434461353421337], [102.7796880888633, 30.41230953163301], [102.80737645215194, 30.391079305225436], [102.83600943654751, 30.370803409668937], [102.86554289206346, 30.351513108924838], [102.89593128025199, 30.333238147238692], [102.92712774442111, 30.316006703276827], [102.95908418188424, 30.29984534667687], [102.99175131813107, 30.284778997079304], [103.02507878280524, 30.270830885703177], [103.05901518737187, 30.258022519525245], [103.09350820435488, 30.246373648117792], [103.12850464802217, 30.235902233196196], [103.1639505563942, 30.22662442092329], [103.19979127444944, 30.218554517013125], [103.23597153839845, 30.211704964672613], [103.27243556089657, 30.206086325414997], [103.30912711706412, 30.201707262774764], [103.34598963118093, 30.19857452894911], [103.38296626392209, 30.19669295438652], [103.42, 30.196065440338597], [103.45703373607792, 30.19669295438652], [103.49401036881908, 30.19857452894911], [103.53087288293588, 30.201707262774764], [103.56756443910344, 30.206086325414997], [103.60402846160156, 30.211704964672613], [103.64020872555056, 30.218554517013125], [103.6760494436058, 30.22662442092329], [103.71149535197783, 30.235902233196196], [103.74649179564513, 30.24637364811779], [103.78098481262813, 30.258022519525245], [103.81492121719477, 30.270830885703177], [103.84824868186894, 30.284778997079304], [103.88091581811577, 30.29984534667687], [103.91287225557889, 30.316006703276827], [103.94406871974802, 30.333238147238692], [103.97445710793654, 30.351513108924838], [104.00399056345249, 30.370803409668937], [104.03262354784806, 30.391079305225436], [104.06031191113671, 30.41230953163301], [104.0870129598691, 30.434461353421337], [104.11268552296345, 30.457500614086815], [104.13729001518823, 30.481391788759417], [104.1607884981998, 30.506098038979463], [104.18314473904059, 30.53158126949986], [104.2043242660076, 30.55780218702621], [104.22429442180538, 30.58472036080421], [104.24302441390117, 30.61229428496097], [104.26048536200472, 30.640481442504033], [104.27665034259964, 30.669238370879516], [104.29149443045753, 30.698520728988207], [104.30499473707084, 30.72828336555633], [104.3171304459453, 30.758480388755537], [104.3278828446974, 30.789065236964777], [104.33723535390764, 30.819990750564948], [104.3451735526847, 30.851209244655603], [104.35168520090144, 30.882672582581613], [104.35676025806829, 30.91433225015641], [104.36039089881493, 30.946139430467326], [104.36257152495648, 30.978045079147755], [104.3632987741255, 31.01]]]}, "properties": {"radiusKm": 90}}, {"type": "Feature", "geometry": {"type": "Polygon", "coordinates": [[[104.99216462354251, 31.01], [104.99095254159414, 31.06325820142041], [104.98731816469154, 31.11643428255446], [104.98126709678047, 31.169446249739323], [104.97280866816908, 31.22221236236398], [104.96195592114117, 31.274651258907333], [104.94872558984606, 31.326682082391756], [104.93313807449566, 31.378224605058705], [104.91521740990882, 31.429199352074107], [104.89499122845142, 31.479527724072785], [104.87249071742923, 31.52913211835299], [104.84775057099941, 31.577936048534145], [104.82080893667452, 31.62586426249328], [104.79170735650195, 31.67284285839839], [104.76049070300897, 31.71879939865965], [104.72720711001266, 31.76366302162299], [104.69190789840098, 31.80736455083357], [104.65464749699969, 31.8498366017009], [104.61548335864704, 31.891013685400978], [104.57447587160574, 31.93083230985531], [104.5316882664485, 31.96923107763111], [104.48718651856117, 32.006150780611655], [104.44103924641344, 32.041534491290946], [104.39331760575413, 32.07532765055178], [104.34409517989424, 32.107478151791945], [104.29344786624668, 32.137936421268854], [104.24145375929815, 32.166655494538624], [104.18819303019293, 32.193591088871884], [104.1337478031149, 32.2187016715345], [104.07820202865794, 32.24194852382804], [104.02164135438022, 32.26329580079126], [103.96415299274187, 32.28271058647035], [103.90582558662973, 32.300162944673005], [103.84674907267633, 32.31562596512785], [103.78701454258426, 32.32907580497813], [103.72671410266928, 32.34049172554565], [103.66594073183904, 32.349856124308346], [103.60478813822647, 32.35715456204206], [103.54335061469845, 32.36237578508482], [103.4817228934632, 32.36551174268914], [103.42, 32.36655759943567], [103.3582771065368, 32.36551174268914], [103.29664938530155, 32.36237578508482], [103.23521186177354, 32.35715456204206], [103.17405926816096, 32.349856124308346], [103.11328589733073, 32.34049172554565], [103.05298545741574, 32.32907580497813], [102.99325092732367, 32.31562596512785], [102.93417441337027, 32.300162944673005], [102.87584700725813, 32.28271058647035], [102.81835864561978, 32.26329580079126], [102.76179797134206, 32.24194852382804], [102.7062521968851, 32.2187016715345], [102.65180696980707, 32.193591088871884], [102.59854624070185, 32.166655494538624], [102.54655213375332, 32.137936421268854], [102.49590482010576, 32.107478151791945], [102.44668239424587, 32.07532765055178], [102.39896075358656, 32.041534491290946], [102.35281348143883, 32.006150780611655], [102.3083117335515, 31.96923107763111], [102.26552412839426, 31.93083230985531], [102.22451664135296, 31.891013685400978], [102.18535250300032, 31.8498366017009], [102.14809210159902, 31.80736455083357], [102.11279288998735, 31.76366302162299], [102.07950929699103, 31.71879939865965], [102.04829264349806, 31.67284285839839], [102.01919106332548, 31.625864262493284], [101.9922494290006, 31.577936048534145], [101.96750928257077, 31.52913211835299], [101.94500877154859, 31.479527724072785], [101.92478259009118, 31.429199352074107], [101.90686192550434, 31.378224605058705], [101.89127441015394, 31.326682082391756], [101.87804407885884, 31.274651258907333], [101.86719133183092, 31.22221236236398], [101.85873290321953, 31.169446249739323], [101.85268183530846, 31.11643428255446], [101.84904745840586, 31.06325820142041], [101.8478353764575, 31.01], [101.84904745840586, 30.956741798579593], [101.85268183530846, 30.903565717445545], [101.85873290321953, 30.85055375026068], [101.86719133183092, 30.797787637636024], [101.87804407885884, 30.74534874109267], [101.89127441015394, 30.693317917608248], [101.90686192550434, 30.6417753949413], [101.92478259009118, 30.590800647925896], [101.94500877154859, 30.54047227592722], [101.96750928257077, 30.490867881647013], [101.9922494290006, 30.44206395146586], [102.01919106332548, 30.394135737506723], [102.04829264349806, 30.347157141601613], [102.07950929699103, 30.301200601340348], [102.11279288998735, 30.256336978377014], [102.14809210159902, 30.212635449166434], [102.18535250300032, 30.170163398299103], [102.22451664135295, 30.128986314599025], [102.26552412839426, 30.089167690144688], [102.3083117335515, 30.050768922368892], [102.35281348143883, 30.013849219388348], [102.39896075358656, 29.97846550870906], [102.44668239424587, 29.94467234944823], [102.49590482010576, 29.912521848208062], [102.54655213375332, 29.882063578731152], [102.59854624070185, 29.853344505461376], [102.65180696980707, 29.82640891112812], [102.7062521968851, 29.801298328465506], [102.76179797134206, 29.778051476171957], [102.81835864561978, 29.75670419920874], [102.87584700725813, 29.737289413529652], [102.93417441337027, 29.719837055326995], [102.99325092732367, 29.70437403487215], [103.05298545741574, 29.690924195021875], [103.11328589733073, 29.679508274454353], [103.17405926816096, 29.67014387569166], [103.23521186177354, 29.66284543795794], [103.29664938530155, 29.657624214915177], [103.3582771065368, 29.654488257310867], [103.42, 29.65344240056433], [103.4817228934632, 29.654488257310867], [103.54335061469845, 29.657624214915177], [103.60478813822647, 29.66284543795794], [103.66594073183904, 29.670143875691657], [103.72671410266928, 29.679508274454353], [103.78701454258426, 29.690924195021875], [103.84674907267633, 29.70437403487215], [103.90582558662973, 29.719837055326995], [103.96415299274187, 29.737289413529652], [104.02164135438022, 29.75670419920874], [104.07820202865794, 29.778051476171957], [104.1337478031149, 29.801298328465506], [104.18819303019293, 29.82640891112812], [104.24145375929815, 29.853344505461376], [104.29344786624668, 29.882063578731152], [104.34409517989423, 29.91252184820806], [104.39331760575413, 29.94467234944823], [104.44103924641344, 29.97846550870906], [104.48718651856117, 30.013849219388348], [104.5316882664485, 30.050768922368892], [104.57447587160574, 30.089167690144688], [104.61548335864705, 30.128986314599025], [104.65464749699969, 30.170163398299103], [104.69190789840098, 30.212635449166434], [104.72720711001266, 30.256336978377014], [104.76049070300897, 30.301200601340348], [104.79170735650195, 30.347157141601613], [104.82080893667452, 30.39413573750672], [104.84775057099941, 30.442063951465858], [104.87249071742923, 30.490867881647013], [104.89499122845142, 30.54047227592722], [104.91521740990882, 30.590800647925896], [104.93313807449566, 30.6417753949413], [104.94872558984606, 30.693317917608248], [104.96195592114117, 30.74534874109267], [104.97280866816908, 30.797787637636024], [104.98126709678047, 30.85055375026068], [104.98731816469154, 30.90356571744554], [104.99095254159414, 30.956741798579593], [104.99216462354251, 31.01]]]}, "properties": {"radiusKm": 150}}, {"type": "Feature", "geometry": {"type": "Point", "coordinates": [103.42, 31.01]}, "properties": {"nameEn": "Wenchuan earthquake epicenter", "nameZh": "??????", "magnitude": "Mw 7.9 / M8.0"}}]}