{
  "type": "FeatureCollection",
  "features": [
    {
      "type": "Feature",
      "id": "katrina",
      "geometry": { "type": "Point", "coordinates": [-90.0715, 29.9511] },
      "properties": {
        "id": "katrina",
        "year": 2005,
        "date": "2005",
        "titleZh": "卡特里娜飓风：避难体系外的宠物",
        "titleEn": "Hurricane Katrina: pets excluded from sheltering systems",
        "placeZh": "新奥尔良",
        "placeEn": "New Orleans",
        "countryRegionZh": "美国",
        "countryRegionEn": "United States",
        "disasterType": "hurricane",
        "animalFocus": "companion_animals",
        "separationTypeZh": "避难所拒绝宠物、撤离交通限制、人宠被迫分离",
        "separationTypeEn": "Shelter exclusion, evacuation barriers, and forced human-animal separation",
        "humanImpactZh": "许多人因不能携带宠物而推迟或拒绝撤离，灾后宠物失踪与死亡又加重心理创伤。",
        "humanImpactEn": "Many residents delayed or refused evacuation because they could not take pets, while disappearance and death of animals deepened post-disaster trauma.",
        "governanceResponseZh": "该事件推动美国 PETS Act，将家庭宠物和服务动物纳入州与地方应急疏散、庇护规划。",
        "governanceResponseEn": "The event helped lead to the PETS Act, requiring state and local emergency plans to include household pets and service animals.",
        "researchNoteZh": "卡特里娜显示，宠物不是撤离计划之外的私人问题，而是影响生命安全、撤离意愿和灾后恢复的基础关系。",
        "researchNoteEn": "Katrina shows that pets are not a private issue outside evacuation planning; they shape safety, evacuation decisions, and recovery.",
        "sourceTypeZh": "法律与灾害研究文献",
        "sourceTypeEn": "Legislation and disaster research literature"
      }
    },
    {
      "type": "Feature",
      "id": "fukushima",
      "geometry": { "type": "Point", "coordinates": [141.0324, 37.4219] },
      "properties": {
        "id": "fukushima",
        "year": 2011,
        "date": "2011",
        "titleZh": "福岛核灾难：短期撤离变成长期失去",
        "titleEn": "Fukushima Nuclear Disaster: temporary evacuation as long-term loss",
        "placeZh": "福岛第一核电站周边禁区",
        "placeEn": "Evacuation zone around Fukushima Daiichi",
        "countryRegionZh": "日本",
        "countryRegionEn": "Japan",
        "disasterType": "nuclear",
        "animalFocus": "companion_and_stray",
        "separationTypeZh": "短期撤离、长期封锁、无法返回家中救援",
        "separationTypeEn": "Short-term evacuation, long-term exclusion, and blocked return for rescue",
        "humanImpactZh": "许多宠物被留在家中后无法及时救援，长期不确定性制造负罪感与被剥夺的悲伤。",
        "humanImpactEn": "Many pets were left at home and could not be rescued in time; uncertainty produced guilt and disenfranchised grief.",
        "governanceResponseZh": "核灾区的空间管制优先处理辐射风险，但伴侣动物照护缺乏制度化预案。",
        "governanceResponseEn": "Spatial control prioritized radiation risk, while companion-animal care lacked institutionalized contingency planning.",
        "researchNoteZh": "福岛说明，灾害中的空间封锁会把人宠分离从一时事件转化为长期伦理与心理问题。",
        "researchNoteEn": "Fukushima shows how disaster closure can transform human-animal separation into a long-term ethical and psychological condition.",
        "sourceTypeZh": "核灾研究、动物救援记录",
        "sourceTypeEn": "Nuclear disaster studies and animal-rescue records"
      }
    },
    {
      "type": "Feature",
      "id": "ukraine",
      "geometry": { "type": "Point", "coordinates": [23.999, 49.8397] },
      "properties": {
        "id": "ukraine",
        "year": 2022,
        "date": "2022",
        "titleZh": "乌克兰难民危机：携宠跨境与家庭迁移",
        "titleEn": "Ukraine refugee crisis: cross-border movement with pets",
        "placeZh": "乌克兰—欧盟边境迁移走廊",
        "placeEn": "Ukraine-EU border mobility corridor",
        "countryRegionZh": "乌克兰 / 欧盟",
        "countryRegionEn": "Ukraine / European Union",
        "disasterType": "war",
        "animalFocus": "companion_animals",
        "separationTypeZh": "战争迁移、边境检疫、交通与临时安置限制",
        "separationTypeEn": "War displacement, border quarantine, transport, and temporary accommodation barriers",
        "humanImpactZh": "难民携宠跨境使宠物进入人道主义迁移与边界治理议题。",
        "humanImpactEn": "Refugees crossing borders with pets brought companion animals into humanitarian migration and border governance.",
        "governanceResponseZh": "欧盟部分地区临时放宽伴侣动物入境要求，承认宠物可构成家庭迁移的一部分。",
        "governanceResponseEn": "Some EU jurisdictions temporarily relaxed companion-animal entry requirements, recognizing pets as part of family mobility.",
        "researchNoteZh": "该案例把宠物从家庭内部关系推向跨国治理场景，显示灾害迁移并非只涉及人的身体流动。",
        "researchNoteEn": "The case moves pets from household relations into transnational governance, showing that disaster mobility is not only human mobility.",
        "sourceTypeZh": "人道主义迁移政策与组织报告",
        "sourceTypeEn": "Humanitarian migration policy and organizational reports"
      }
    },
    {
      "type": "Feature",
      "id": "marshall-fire",
      "geometry": { "type": "Point", "coordinates": [-105.1319, 39.9778] },
      "properties": {
        "id": "marshall-fire",
        "year": 2021,
        "date": "2021",
        "titleZh": "马歇尔火灾：极速城市山火中的回家失败",
        "titleEn": "Marshall Fire: failed return in a fast urban wildfire",
        "placeZh": "科罗拉多州路易斯维尔与苏必利尔",
        "placeEn": "Louisville and Superior, Colorado",
        "countryRegionZh": "美国",
        "countryRegionEn": "United States",
        "disasterType": "wildfire",
        "animalFocus": "companion_animals",
        "separationTypeZh": "工作日突发、道路封锁、灾害速度超过家庭返回能力",
        "separationTypeEn": "Weekday onset, road closure, and disaster speed exceeding household return capacity",
        "humanImpactZh": "大量主人无法返回家中救出宠物，宠物死亡不能简单归因于主人准备不足。",
        "humanImpactEn": "Many owners could not return home to rescue pets; animal deaths cannot be reduced to individual preparedness failure.",
        "governanceResponseZh": "案例凸显预警、道路管制、社区互助与动物应急照护之间的联动不足。",
        "governanceResponseEn": "The case exposes gaps among warning systems, road control, mutual aid, and animal emergency care.",
        "researchNoteZh": "极速灾害把家庭照护责任与公共管制措施直接连接起来，宠物风险因此成为治理关系的产物。",
        "researchNoteEn": "Rapid-onset hazards connect household care with public control measures, making pet risk a product of governance relations.",
        "sourceTypeZh": "山火报道、社区恢复记录",
        "sourceTypeEn": "Wildfire reporting and community recovery records"
      }
    },
    {
      "type": "Feature",
      "id": "turkey-syria",
      "geometry": { "type": "Point", "coordinates": [37.1343, 37.0662] },
      "properties": {
        "id": "turkey-syria",
        "year": 2023,
        "date": "2023",
        "titleZh": "土耳其—叙利亚地震：废墟中的动物搜救与重聚",
        "titleEn": "Turkey-Syria Earthquake: animal rescue and reunion in rubble",
        "placeZh": "土耳其南部与叙利亚北部震区",
        "placeEn": "Southern Turkey and northern Syria earthquake zone",
        "countryRegionZh": "土耳其 / 叙利亚",
        "countryRegionEn": "Turkey / Syria",
        "disasterType": "earthquake",
        "animalFocus": "companion_and_stray",
        "separationTypeZh": "建筑倒塌、临时安置、动物失踪与受困",
        "separationTypeEn": "Building collapse, temporary sheltering, missing animals, and trapped pets",
        "humanImpactZh": "动物搜救和人宠重聚为受灾者心理恢复与社会支持提供重要节点。",
        "humanImpactEn": "Animal rescue and human-pet reunions became meaningful moments for psychological recovery and social support.",
        "governanceResponseZh": "动物保护组织与志愿者在废墟搜救、临时照护和重聚中承担重要角色。",
        "governanceResponseEn": "Animal-protection organizations and volunteers played key roles in search, temporary care, and reunification.",
        "researchNoteZh": "动物救援并非灾害响应的边缘事务，而是恢复情感秩序与社会连接的一部分。",
        "researchNoteEn": "Animal rescue is not peripheral to disaster response; it is part of restoring emotional order and social connection.",
        "sourceTypeZh": "地震响应报道、动物组织记录",
        "sourceTypeEn": "Earthquake response reporting and animal-organization records"
      }
    },
    {
      "type": "Feature",
      "id": "china-covid",
      "geometry": { "type": "Point", "coordinates": [121.4737, 31.2304] },
      "properties": {
        "id": "china-covid",
        "year": 2020,
        "date": "2020-2022",
        "titleZh": "中国新冠宠物治理争议：公共卫生中的家庭成员",
        "titleEn": "COVID-19 pet governance controversy in China",
        "placeZh": "中国城市社区",
        "placeEn": "Urban communities in China",
        "countryRegionZh": "中国大陆",
        "countryRegionEn": "Mainland China",
        "disasterType": "public_health",
        "animalFocus": "companion_animals",
        "separationTypeZh": "隔离、检疫、社区处置与宠物照护冲突",
        "separationTypeEn": "Quarantine, community control, and conflicts over companion-animal care",
        "humanImpactZh": "隔离期间宠物照护不确定，家庭成员身份、法律地位与公共卫生风险发生冲突。",
        "humanImpactEn": "Pet care became uncertain during quarantine, placing family membership, legal status, and public-health risk in conflict.",
        "governanceResponseZh": "个别城市、社区、平台和志愿者尝试建立临时喂养、托管与协商机制。",
        "governanceResponseEn": "Some cities, communities, platforms, and volunteers experimented with temporary feeding, fostering, and negotiation mechanisms.",
        "researchNoteZh": "新冠争议使宠物问题从私人家庭事务进入公共风险治理视野。",
        "researchNoteEn": "COVID-era controversies moved pets from private household concern into public risk governance.",
        "sourceTypeZh": "公共卫生治理案例、媒体与平台记录",
        "sourceTypeEn": "Public-health governance cases, media, and platform records"
      }
    },
    {
      "type": "Feature",
      "id": "henan-rainfall",
      "geometry": { "type": "Point", "coordinates": [113.6254, 34.7466] },
      "properties": {
        "id": "henan-rainfall",
        "year": 2021,
        "date": "2021",
        "titleZh": "河南特大暴雨：洪涝中的宠物与流浪动物救助",
        "titleEn": "Henan extreme rainfall: rescue of pets and stray animals",
        "placeZh": "河南郑州及周边地区",
        "placeEn": "Zhengzhou and surrounding areas, Henan",
        "countryRegionZh": "中国大陆",
        "countryRegionEn": "Mainland China",
        "disasterType": "flood",
        "animalFocus": "companion_and_stray",
        "separationTypeZh": "洪涝淹没、机构受灾、医疗与食物供应中断",
        "separationTypeEn": "Flood inundation, affected rescue facilities, and disrupted veterinary and food supplies",
        "humanImpactZh": "家庭宠物和流浪动物救助机构均受到影响，动物救援成为社会协作的一部分。",
        "humanImpactEn": "Both household pets and stray-animal rescue facilities were affected; animal rescue became part of social collaboration.",
        "governanceResponseZh": "宠物医疗平台、公益基金和民间组织参与救援，推动更组织化的协作。",
        "governanceResponseEn": "Pet medical platforms, charitable funds, and civil organizations joined rescue efforts, moving toward organized collaboration.",
        "researchNoteZh": "河南暴雨显示中国动物救援正在从个人自发行动转向平台化、公益化与组织化协作。",
        "researchNoteEn": "The Henan flood suggests that animal rescue in China is shifting from individual action toward platformed, charitable, and organized collaboration.",
        "sourceTypeZh": "洪涝救援报道、公益组织记录",
        "sourceTypeEn": "Flood response reporting and nonprofit records"
      }
    },
    {
      "type": "Feature",
      "id": "hualien",
      "geometry": { "type": "Point", "coordinates": [121.6015, 23.9872] },
      "properties": {
        "id": "hualien",
        "year": 2024,
        "date": "2024",
        "titleZh": "花莲地震：受困宠物与制度化动物救援倡议",
        "titleEn": "Hualien Earthquake: trapped pets and institutional animal rescue",
        "placeZh": "台湾花莲",
        "placeEn": "Hualien, Taiwan",
        "countryRegionZh": "中国台湾",
        "countryRegionEn": "Taiwan, China",
        "disasterType": "earthquake",
        "animalFocus": "companion_animals",
        "separationTypeZh": "地震受困、建筑管制、救援优先序与重返限制",
        "separationTypeEn": "Trapped animals, building control, rescue prioritization, and restricted return",
        "humanImpactZh": "受困宠物救援引发公众关注，动物处境成为灾害现场伦理与舆论的一部分。",
        "humanImpactEn": "Rescue of trapped pets drew public attention, making animal vulnerability part of disaster ethics and public debate.",
        "governanceResponseZh": "动物保护组织倡议将动物救援纳入常规灾害防救体系。",
        "governanceResponseEn": "Animal-protection groups advocated including animal rescue in routine disaster prevention and response systems.",
        "researchNoteZh": "花莲地震显示，受困宠物已成为灾害现场伦理、舆论和制度回应的一部分。",
        "researchNoteEn": "The Hualien earthquake shows that trapped pets have become part of disaster-site ethics, public opinion, and institutional response.",
        "sourceTypeZh": "地震新闻、动物保护组织倡议",
        "sourceTypeEn": "Earthquake news and animal-protection advocacy"
      }
    }
  ]
}
